Number,Name,Country,Region,Type,ActivityEvidence,LastKnownEruption,Latitude,Longitude,Elevation(Meters),DominantRockType,TectonicSetting
305011,Arshan,China,Kamchatka and Mainland Asia,Pyroclastic cone,Eruption Dated,0,47.5,120.7,1677,Basalt / Picro-Basalt,Intraplate / Continental Crust (>25 km)
231040,"Lunayyir, Harrat",Saudi Arabia,Middle East and Indian Ocean,Volcanic field,Eruption Observed,1000,25.17,37.75,1370,Basalt / Picro-Basalt,Intraplate / Continental Crust (>25 km)
306040,Halla,South Korea,Kamchatka and Mainland Asia,Shield,Eruption Observed,1007,33.361,126.53,1919,Basalt / Picro-Basalt,Intraplate / Continental Crust (>25 km)
327040,Markagunt Plateau,United States,Canada and Western USA,Volcanic field,Evidence Credible,1050,37.58,-112.67,2840,Basalt / Picro-Basalt,Rift Zone / Continental Crust (>25 km)
323020,Medicine Lake,United States,Canada and Western USA,Shield,Eruption Dated,1060,41.611,-121.554,2412,Basalt / Picro-Basalt,Subduction Zone / Continental Crust (>25 km)
344092,Nejapa-Miraflores,Nicaragua,México and Central America,Fissure vent,Eruption Dated,1060,12.12,-86.32,360,Basalt / Picro-Basalt,Subduction Zone / Continental Crust (>25 km)
329020,San Francisco Volcanic Field,United States,Canada and Western USA,Pyroclastic cone,Eruption Dated,1075,35.347,-111.678,3850,Basalt / Picro-Basalt,Rift Zone / Continental Crust (>25 km)
285081,Mashu,Japan,"Japan, Taiwan, Marianas",Caldera,Eruption Dated,1080,43.572,144.561,857,Andesite / Basaltic Andesite,Subduction Zone / Continental Crust (>25 km)
358022,Yate,Chile,South America,Stratovolcano,Eruption Dated,1090,-41.755,-72.396,2187,Andesite / Basaltic Andesite,Subduction Zone / Continental Crust (>25 km)
329010,Uinkaret Field,United States,Canada and Western USA,Volcanic field,Eruption Dated,1100,36.38,-113.13,1555,Trachybasalt / Tephrite Basanite,Rift Zone / Continental Crust (>25 km)
341096,Cofre de Perote,Mexico,México and Central America,Shield,Eruption Dated,1150,19.492,-97.15,4282,Andesite / Basaltic Andesite,Subduction Zone / Continental Crust (>25 km)
353011,Ecuador,Ecuador,South America,Shield,Eruption Dated,1150,-0.02,-91.546,790,Basalt / Picro-Basalt,Rift Zone / Oceanic Crust (< 15 km)
241060,Reporoa,New Zealand,New Zealand to Fiji,Caldera,Eruption Dated,1180,-38.42,176.33,592,Rhyolite,Subduction Zone / Continental Crust (>25 km)
351040,Machin,Colombia,South America,Stratovolcano,Eruption Dated,1180,4.487,-75.389,2749,Dacite,Subduction Zone / Continental Crust (>25 km)
282043,Kuchinoshima,Japan,"Japan, Taiwan, Marianas",Stratovolcano,Eruption Dated,1190,29.968,129.926,628,Andesite / Basaltic Andesite,Subduction Zone / Oceanic Crust (< 15 km)
271031,Leonard Range,Philippines,Philippines and SE Asia,Stratovolcano,Eruption Dated,120,7.382,126.047,1080,Andesite / Basaltic Andesite,Subduction Zone / Continental Crust (>25 km)
283031,Yokodake,Japan,"Japan, Taiwan, Marianas",Stratovolcano,Eruption Dated,1200,36.087,138.32,2480,Andesite / Basaltic Andesite,Subduction Zone / Continental Crust (>25 km)
313050,Hayes,United States,Alaska,Stratovolcano,Eruption Dated,1200,61.64,-152.411,3034,Dacite,Subduction Zone / Continental Crust (>25 km)
211042,Lipari,Italy,Mediterranean and Western Asia,Stratovolcano,Eruption Dated,1230,38.49,14.933,590,Rhyolite,Subduction Zone / Continental Crust (>25 km)
357111,Sollipulli,Chile,South America,Caldera,Eruption Dated,1240,-38.97,-71.52,2282,Andesite / Basaltic Andesite,Subduction Zone / Continental Crust (>25 km)
222166,Rungwe,Tanzania,Africa and Red Sea,Stratovolcano,Eruption Dated,1250,-9.135,33.668,2953,Trachyte / Trachydacite,Rift Zone / Continental Crust (>25 km)
300550,Gorny Institute,Russia,Kamchatka and Mainland Asia,Stratovolcano,Eruption Dated,1250,57.33,160.2,2125,Andesite / Basaltic Andesite,Subduction Zone / Continental Crust (>25 km)
231160,"Sawad, Harra Es-",Yemen,Middle East and Indian Ocean,Volcanic field,Eruption Observed,1253,13.58,46.12,1737,Trachybasalt / Tephrite Basanite,Intraplate / Continental Crust (>25 km)
231070,"Rahat, Harrat",Saudi Arabia,Middle East and Indian Ocean,Volcanic field,Eruption Observed,1256,23.08,39.78,1744,Basalt / Picro-Basalt,Intraplate / Continental Crust (>25 km)
323150,Mammoth Mountain,United States,Canada and Western USA,Lava dome,Eruption Dated,1260,37.631,-119.032,3369,Trachyte / Trachydacite,Rift Zone / Continental Crust (>25 km)
341062,Jocotitlan,Mexico,México and Central America,Stratovolcano,Eruption Dated,1270,19.73,-99.758,3900,Dacite,Subduction Zone / Continental Crust (>25 km)
360110,"Plat Pays, Morne",Dominica,West Indies,Stratovolcano,Eruption Dated,1270,15.255,-61.341,940,Dacite,Subduction Zone / Oceanic Crust (< 15 km)
352060,Quilotoa,Ecuador,South America,Caldera,Eruption Dated,1280,-0.85,-78.9,3914,Dacite,Subduction Zone / Continental Crust (>25 km)
211001,Larderello,Italy,Mediterranean and Western Asia,Explosion crater,Eruption Observed,1282,43.25,10.87,500,No Data,Subduction Zone / Continental Crust (>25 km)
271020,Matutum,Philippines,Philippines and SE Asia,Stratovolcano,Eruption Dated,1290,6.37,125.07,2286,Andesite / Basaltic Andesite,Subduction Zone / Continental Crust (>25 km)
327050,Black Rock Desert,United States,Canada and Western USA,Volcanic field,Eruption Dated,1290,38.97,-112.5,1800,Basalt / Picro-Basalt,Rift Zone / Continental Crust (>25 km)
211030,Ischia,Italy,Mediterranean and Western Asia,Complex,Eruption Observed,1302,40.73,13.897,789,Trachyte / Trachydacite,Subduction Zone / Continental Crust (>25 km)
285080,Kussharo,Japan,"Japan, Taiwan, Marianas",Caldera,Eruption Dated,1320,43.608,144.443,574,Dacite,Subduction Zone / Continental Crust (>25 km)
371030,Krysuvik,Iceland,Iceland and Arctic Ocean,Crater rows,Eruption Observed,1340,63.883,-22.083,360,Basalt / Picro-Basalt,Rift Zone / Oceanic Crust (< 15 km)
371040,Brennisteinsfjoll,Iceland,Iceland and Arctic Ocean,Crater rows,Eruption Observed,1341,63.933,-21.783,610,Basalt / Picro-Basalt,Rift Zone / Oceanic Crust (< 15 km)
241020,Auckland Field,New Zealand,New Zealand to Fiji,Volcanic field,Eruption Dated,1350,-36.9,174.87,260,Trachybasalt / Tephrite Basanite,Subduction Zone / Continental Crust (>25 km)
253060,Dawson Strait Group,Papua New Guinea,Melanesia and Australia,Volcanic field,Eruption Dated,1350,-9.62,150.88,500,Rhyolite,Subduction Zone / Continental Crust (>25 km)
273060,San Pablo Volcanic Field,Philippines,Philippines and SE Asia,Stratovolcano,Eruption Dated,1350,14.12,121.3,1090,Trachyandesite / Basaltic Trachyandesite,Subduction Zone / Continental Crust (>25 km)
300010,Kambalny,Russia,Kamchatka and Mainland Asia,Stratovolcano,Eruption Dated,1350,51.306,156.875,2116,Basalt / Picro-Basalt,Subduction Zone / Continental Crust (>25 km)
300122,Kostakan,Russia,Kamchatka and Mainland Asia,Pyroclastic cone,Eruption Dated,1350,53.83,158.05,1150,Basalt / Picro-Basalt,Subduction Zone / Continental Crust (>25 km)
323120,Mono Craters,United States,Canada and Western USA,Lava dome,Eruption Dated,1350,37.88,-119,2796,Rhyolite,Rift Zone / Continental Crust (>25 km)
241140,Healy,New Zealand,New Zealand to Fiji,Submarine,Eruption Dated,1360,-35.004,178.973,-980,Dacite,Subduction Zone / Oceanic Crust (< 15 km)
323130,Inyo Craters,United States,Canada and Western USA,Lava dome,Eruption Dated,1380,37.692,-119.02,2629,Rhyolite,Rift Zone / Continental Crust (>25 km)
212030,Milos,Greece,Mediterranean and Western Asia,Stratovolcano,Eruption Dated,140,36.699,24.439,751,Rhyolite,Subduction Zone / Continental Crust (>25 km)
222164,Ngozi,Tanzania,Africa and Red Sea,Caldera,Eruption Dated,1450,-8.989,33.554,2614,Trachyte / Trachydacite,Rift Zone / Continental Crust (>25 km)
274060,Iraya,Philippines,Philippines and SE Asia,Stratovolcano,Eruption Observed,1454,20.469,122.01,1009,Andesite / Basaltic Andesite,Subduction Zone / Crust Thickness Unknown
372050,Torfajokull,Iceland,Iceland and Arctic Ocean,Stratovolcano,Eruption Observed,1477,63.8,-19.133,1280,Rhyolite,Rift Zone / Oceanic Crust (< 15 km)
354004,Andahua-Orcopampa,Peru,South America,Pyroclastic cone,Eruption Dated,1490,-15.42,-72.33,4713,Trachyandesite / Basaltic Trachyandesite,Subduction Zone / Continental Crust (>25 km)
371050,Hengill,Iceland,Iceland and Arctic Ocean,Crater rows,Eruption Dated,150,64.083,-21.416,803,Basalt / Picro-Basalt,Rift Zone / Oceanic Crust (< 15 km)
300272,Khangar,Russia,Kamchatka and Mainland Asia,Stratovolcano,Eruption Dated,1500,54.761,157.407,1967,Dacite,Subduction Zone / Continental Crust (>25 km)
211010,Campi Flegrei,Italy,Mediterranean and Western Asia,Caldera,Eruption Observed,1538,40.827,14.139,458,Trachyte / Trachydacite,Subduction Zone / Continental Crust (>25 km)
283131,Hiuchigatake,Japan,"Japan, Taiwan, Marianas",Stratovolcano,Eruption Observed,1544,36.955,139.285,2356,Andesite / Basaltic Andesite,Subduction Zone / Continental Crust (>25 km)
245010,Taveuni,Fiji,New Zealand to Fiji,Shield,Eruption Dated,1550,-16.82,-179.97,1241,Basalt / Picro-Basalt,Subduction Zone / Crust Thickness Unknown
283280,Hakkodasan,Japan,"Japan, Taiwan, Marianas",Stratovolcano,Eruption Dated,1550,40.659,140.877,1585,Andesite / Basaltic Andesite,Subduction Zone / Continental Crust (>25 km)
300180,Kikhpinych,Russia,Kamchatka and Mainland Asia,Stratovolcano,Eruption Dated,1550,54.489,160.251,1506,Basalt / Picro-Basalt,Subduction Zone / Continental Crust (>25 km)
300190,Krasheninnikov,Russia,Kamchatka and Mainland Asia,Caldera,Eruption Dated,1550,54.596,160.27,1816,Basalt / Picro-Basalt,Subduction Zone / Continental Crust (>25 km)
311090,Takawangha,United States,Alaska,Stratovolcano,Eruption Dated,1550,51.873,-178.006,1449,Basalt / Picro-Basalt,Subduction Zone / Intermediate Crust (15-25 km)
320150,Wells Gray-Clearwater,Canada,Canada and Western USA,Pyroclastic cone,Eruption Dated,1550,52.33,-120.57,2576,Basalt / Picro-Basalt,Intraplate / Continental Crust (>25 km)
346010,Baru,Panama,México and Central America,Stratovolcano,Eruption Observed,1550,8.808,-82.543,3474,Andesite / Basaltic Andesite,Subduction Zone / Continental Crust (>25 km)
358056,Maca,Chile,South America,Stratovolcano,Eruption Dated,1560,-45.1,-73.17,2960,Basalt / Picro-Basalt,Subduction Zone / Continental Crust (>25 km)
382090,Agua de Pau,Portugal,Atlantic Ocean,Stratovolcano,Eruption Observed,1564,37.77,-25.47,947,Trachyte / Trachydacite,Rift Zone / Oceanic Crust (< 15 km)
255011,Billy Mitchell,Papua New Guinea,Melanesia and Australia,Pyroclastic shield,Eruption Dated,1580,-6.092,155.225,1544,Andesite / Basaltic Andesite,Subduction Zone / Crust Thickness Unknown
360030,Liamuiga,Saint Kitts and Nevis,West Indies,Stratovolcano,Eruption Dated,160,17.37,-62.8,1156,Andesite / Basaltic Andesite,Subduction Zone / Oceanic Crust (< 15 km)
300450,Alney-Chashakondzha,Russia,Kamchatka and Mainland Asia,Stratovolcano,Eruption Dated,1600,56.7,159.65,2598,Basalt / Picro-Basalt,Subduction Zone / Continental Crust (>25 km)
354030,Huaynaputina,Peru,South America,Stratovolcano,Eruption Observed,1600,-16.608,-70.85,4850,Dacite,Subduction Zone / Continental Crust (>25 km)
284050,Hachijojima,Japan,"Japan, Taiwan, Marianas",Stratovolcano,Eruption Observed,1606,33.137,139.766,854,Basalt / Picro-Basalt,Subduction Zone / Oceanic Crust (< 15 km)
382100,Furnas,Portugal,Atlantic Ocean,Stratovolcano,Eruption Observed,1630,37.77,-25.32,805,Trachyte / Trachydacite,Rift Zone / Oceanic Crust (< 15 km)
221141,Dama Ali,Ethiopia,Africa and Red Sea,Shield,Eruption Observed,1631,11.28,41.63,1068,Basalt / Picro-Basalt,Rift Zone / Intermediate Crust (15-25 km)
360010,Saba,Netherlands,West Indies,Stratovolcano,Eruption Observed,1640,17.63,-63.23,887,Andesite / Basaltic Andesite,Subduction Zone / Oceanic Crust (< 15 km)
271011,Parker,Philippines,Philippines and SE Asia,Stratovolcano,Eruption Observed,1641,6.113,124.892,1824,Andesite / Basaltic Andesite,Subduction Zone / Continental Crust (>25 km)
213020,Nemrut Dagi,Turkey,Mediterranean and Western Asia,Stratovolcano,Eruption Observed,1650,38.654,42.229,2948,Rhyolite,Intraplate / Continental Crust (>25 km)
382081,Picos Volcanic System,Portugal,Atlantic Ocean,Pyroclastic cone,Eruption Observed,1652,37.78,-25.67,350,Trachybasalt / Tephrite Basanite,Rift Zone / Oceanic Crust (< 15 km)
283050,Hakusan,Japan,"Japan, Taiwan, Marianas",Stratovolcano,Eruption Observed,1659,36.155,136.771,2702,Andesite / Basaltic Andesite,Subduction Zone / Continental Crust (>25 km)
245030,Nabukelevu,Fiji,New Zealand to Fiji,Lava dome,Eruption Dated,1660,-19.12,177.98,805,Andesite / Basaltic Andesite,Subduction Zone / Crust Thickness Unknown
300020,Koshelev,Russia,Kamchatka and Mainland Asia,Stratovolcano,Eruption Observed,1690,51.356,156.753,1822,Basalt / Picro-Basalt,Subduction Zone / Continental Crust (>25 km)
320100,Tseax River Cone,Canada,Canada and Western USA,Pyroclastic cone,Eruption Dated,1690,55.12,-128.9,609,Basalt / Picro-Basalt,Intraplate / Continental Crust (>25 km)
265030,Gunungapi Wetar,Indonesia,Indonesia,Stratovolcano,Eruption Observed,1699,-6.642,126.65,282,Andesite / Basaltic Andesite,Subduction Zone / Oceanic Crust (< 15 km)
321020,Glacier Peak,United States,Canada and Western USA,Stratovolcano,Eruption Dated,1700,48.112,-121.113,3213,Dacite,Subduction Zone / Continental Crust (>25 km)
283030,Fujisan,Japan,"Japan, Taiwan, Marianas",Stratovolcano,Eruption Observed,1708,35.361,138.728,3776,Basalt / Picro-Basalt,Subduction Zone / Continental Crust (>25 km)
312200,Snowy Mountain,United States,Alaska,Stratovolcano,Eruption Dated,1710,58.336,-154.682,2162,Andesite / Basaltic Andesite,Subduction Zone / Continental Crust (>25 km)
358054,Mentolat,Chile,South America,Stratovolcano,Eruption Observed,1710,-44.7,-73.08,1660,Andesite / Basaltic Andesite,Subduction Zone / Continental Crust (>25 km)
351012,"Bravo, Cerro",Colombia,South America,Stratovolcano,Eruption Dated,1720,5.091,-75.293,3985,Dacite,Subduction Zone / Continental Crust (>25 km)
382020,Pico,Portugal,Atlantic Ocean,Stratovolcano,Eruption Observed,1720,38.47,-28.4,2351,Basalt / Picro-Basalt,Rift Zone / Oceanic Crust (< 15 km)
382070,Don Joao de Castro Bank,Portugal,Atlantic Ocean,Submarine,Eruption Observed,1720,38.23,-26.63,-13,Basalt / Picro-Basalt,Rift Zone / Oceanic Crust (< 15 km)
374010,Oraefajokull,Iceland,Iceland and Arctic Ocean,Stratovolcano,Eruption Observed,1728,64.05,-16.633,2010,Basalt / Picro-Basalt,Rift Zone / Oceanic Crust (< 15 km)
263220,Sumbing,Indonesia,Indonesia,Stratovolcano,Eruption Observed,1730,-7.384,110.07,3371,Andesite / Basaltic Andesite,Subduction Zone / Continental Crust (>25 km)
285060,Taisetsuzan,Japan,"Japan, Taiwan, Marianas",Stratovolcano,Eruption Dated,1739,43.664,142.854,2291,Andesite / Basaltic Andesite,Subduction Zone / Continental Crust (>25 km)
300280,Ichinsky,Russia,Kamchatka and Mainland Asia,Stratovolcano,Eruption Observed,1740,55.678,157.718,3596,Basalt / Picro-Basalt,Subduction Zone / Continental Crust (>25 km)
332060,Haleakala,United States,Hawaii and Pacific Ocean,Shield,Eruption Dated,1750,20.708,-156.25,3055,Basalt / Picro-Basalt,Intraplate / Oceanic Crust (< 15 km)
357123,Huanquihue Group,Argentina,South America,Stratovolcano,Eruption Dated,1750,-39.887,-71.58,2189,Basalt / Picro-Basalt,Subduction Zone / Continental Crust (>25 km)
375010,Kolbeinsey Ridge,Iceland,Iceland and Arctic Ocean,Submarine,Eruption Observed,1755,66.67,-18.5,5,Basalt / Picro-Basalt,Rift Zone / Oceanic Crust (< 15 km)
360140,Qualibou,Saint Lucia,West Indies,Caldera,Eruption Observed,1766,13.83,-61.05,777,Andesite / Basaltic Andesite,Subduction Zone / Oceanic Crust (< 15 km)
222090,Olkaria,Kenya,Africa and Red Sea,Pyroclastic cone,Eruption Dated,1770,-0.904,36.292,2434,Rhyolite,Rift Zone / Continental Crust (>25 km)
352022,Chacana,Ecuador,South America,Caldera,Eruption Observed,1773,-0.375,-78.25,4643,Rhyolite,Subduction Zone / Continental Crust (>25 km)
300080,Opala,Russia,Kamchatka and Mainland Asia,Caldera,Eruption Observed,1776,52.543,157.339,2439,Basalt / Picro-Basalt,Subduction Zone / Continental Crust (>25 km)
305030,Wudalianchi,China,Kamchatka and Mainland Asia,Volcanic field,Eruption Observed,1776,48.72,126.12,597,Trachybasalt / Tephrite Basanite,Intraplate / Continental Crust (>25 km)
281031,Kueishantao,Taiwan,"Japan, Taiwan, Marianas",Stratovolcano,Eruption Observed,1785,24.841,121.953,361,Andesite / Basaltic Andesite,Subduction Zone / Continental Crust (>25 km)
284060,Aogashima,Japan,"Japan, Taiwan, Marianas",Stratovolcano,Eruption Observed,1785,32.458,139.759,423,Basalt / Picro-Basalt,Subduction Zone / Oceanic Crust (< 15 km)
323010,Shasta,United States,Canada and Western USA,Stratovolcano,Eruption Observed,1786,41.409,-122.193,4317,Andesite / Basaltic Andesite,Subduction Zone / Continental Crust (>25 km)
352006,Cayambe,Ecuador,South America,Compound,Eruption Observed,1786,0.029,-77.986,5790,Andesite / Basaltic Andesite,Subduction Zone / Continental Crust (>25 km)
283290,Osorezan,Japan,"Japan, Taiwan, Marianas",Stratovolcano,Eruption Observed,1787,41.276,141.124,878,Andesite / Basaltic Andesite,Subduction Zone / Continental Crust (>25 km)
285010,Oshima-Oshima,Japan,"Japan, Taiwan, Marianas",Stratovolcano,Eruption Observed,1790,41.51,139.367,732,Basalt / Picro-Basalt,Subduction Zone / Continental Crust (>25 km)
323110,Mono Lake Volcanic Field,United States,Canada and Western USA,Pyroclastic cone,Eruption Dated,1790,38,-119.03,2121,Dacite,Rift Zone / Continental Crust (>25 km)
234002,St. Paul,France,Middle East and Indian Ocean,Stratovolcano,Eruption Observed,1793,-38.72,77.53,268,Basalt / Picro-Basalt,Rift Zone / Oceanic Crust (< 15 km)
311390,Amak,United States,Alaska,Stratovolcano,Eruption Observed,1796,55.424,-163.149,488,Andesite / Basaltic Andesite,Subduction Zone / Continental Crust (>25 km)
341110,San Martin,Mexico,México and Central America,Shield,Eruption Observed,1796,18.57,-95.2,1650,Trachybasalt / Tephrite Basanite,Subduction Zone / Continental Crust (>25 km)
263240,Merbabu,Indonesia,Indonesia,Stratovolcano,Eruption Observed,1797,-7.45,110.43,3145,Basalt / Picro-Basalt,Subduction Zone / Continental Crust (>25 km)
241061,Maroa,New Zealand,New Zealand to Fiji,Caldera,Eruption Dated,180,-38.42,176.08,897,Rhyolite,Subduction Zone / Continental Crust (>25 km)
222170,Kyejo,Tanzania,Africa and Red Sea,Stratovolcano,Eruption Observed,1800,-9.229,33.792,2176,Trachyte / Trachydacite,Rift Zone / Continental Crust (>25 km)
285082,Rausudake,Japan,"Japan, Taiwan, Marianas",Stratovolcano,Eruption Dated,1800,44.076,145.122,1660,Andesite / Basaltic Andesite,Subduction Zone / Continental Crust (>25 km)
320090,Iskut-Unuk River Cones,Canada,Canada and Western USA,Pyroclastic cone,Eruption Dated,1800,56.58,-130.55,1880,Basalt / Picro-Basalt,Intraplate / Continental Crust (>25 km)
354031,Ticsani,Peru,South America,Lava dome,Eruption Dated,1800,-16.755,-70.595,5408,Dacite,Subduction Zone / Continental Crust (>25 km)
332040,Hualalai,United States,Hawaii and Pacific Ocean,Shield,Eruption Observed,1801,19.692,-155.87,2523,Basalt / Picro-Basalt,Intraplate / Oceanic Crust (< 15 km)
352030,Antisana,Ecuador,South America,Stratovolcano,Eruption Observed,1802,-0.481,-78.141,5753,Andesite / Basaltic Andesite,Subduction Zone / Continental Crust (>25 km)
354040,Tutupaca,Peru,South America,Stratovolcano,Eruption Observed,1802,-17.026,-70.372,5801,Andesite / Basaltic Andesite,Subduction Zone / Continental Crust (>25 km)
231080,"Yar, Jabal",Saudi Arabia,Middle East and Indian Ocean,Volcanic field,Eruption Observed,1810,17.05,42.83,305,Basalt / Picro-Basalt,Intraplate / Continental Crust (>25 km)
355090,Putana,Chile,South America,Stratovolcano,Eruption Observed,1810,-22.557,-67.853,5884,Dacite,Subduction Zone / Continental Crust (>25 km)
311160,Atka,United States,Alaska,Stratovolcano,Eruption Observed,1812,52.331,-174.139,1448,Basalt / Picro-Basalt,Subduction Zone / Intermediate Crust (15-25 km)
353030,Darwin,Ecuador,South America,Shield,Eruption Dated,1813,-0.18,-91.28,1330,Basalt / Picro-Basalt,Rift Zone / Oceanic Crust (< 15 km)
312130,Ugashik-Peulik,United States,Alaska,Stratovolcano,Eruption Observed,1814,57.751,-156.368,1474,Andesite / Basaltic Andesite,Subduction Zone / Continental Crust (>25 km)
342040,Almolonga,Guatemala,México and Central America,Stratovolcano,Eruption Observed,1818,14.797,-91.519,3173,Dacite,Subduction Zone / Continental Crust (>25 km)
221190,Fentale,Ethiopia,Africa and Red Sea,Stratovolcano,Eruption Observed,1820,8.975,39.93,2007,Rhyolite,Rift Zone / Continental Crust (>25 km)
221200,Kone,Ethiopia,Africa and Red Sea,Caldera,Eruption Observed,1820,8.8,39.692,1619,Rhyolite,Rift Zone / Continental Crust (>25 km)
272050,Cabalían,Philippines,Philippines and SE Asia,Stratovolcano,Eruption Dated,1820,10.285,125.218,912,Andesite / Basaltic Andesite,Subduction Zone / Continental Crust (>25 km)
285034,Kuttara,Japan,"Japan, Taiwan, Marianas",Stratovolcano,Eruption Dated,1820,42.491,141.16,549,Basalt / Picro-Basalt,Subduction Zone / Continental Crust (>25 km)
358090,Fueguino,Chile,South America,Lava dome,Eruption Observed,1820,-54.95,-70.25,150,Andesite / Basaltic Andesite,Subduction Zone / Continental Crust (>25 km)
357072,Tromen,Argentina,South America,Stratovolcano,Eruption Observed,1822,-37.144,-70.033,4114,Andesite / Basaltic Andesite,Subduction Zone / Continental Crust (>25 km)
383060,Lanzarote,Spain,Atlantic Ocean,Fissure vent,Eruption Observed,1824,29.03,-13.63,670,Basalt / Picro-Basalt,Intraplate / Intermediate Crust (15-25 km)
290190,Prevo Peak,Russia,Kuril Islands,Stratovolcano,Eruption Observed,1825,47.02,152.12,1360,Basalt / Picro-Basalt,Subduction Zone / Oceanic Crust (< 15 km)
311230,Carlisle,United States,Alaska,Stratovolcano,Eruption Observed,1828,52.894,-170.054,1620,Andesite / Basaltic Andesite,Subduction Zone / Intermediate Crust (15-25 km)
311050,Little Sitkin,United States,Alaska,Stratovolcano,Eruption Observed,1830,51.95,178.543,1174,Andesite / Basaltic Andesite,Subduction Zone / Intermediate Crust (15-25 km)
311350,Fisher,United States,Alaska,Stratovolcano,Eruption Observed,1830,54.65,-164.43,1112,Andesite / Basaltic Andesite,Subduction Zone / Continental Crust (>25 km)
282021,Yokoate-jima,Japan,"Japan, Taiwan, Marianas",Stratovolcano,Eruption Observed,1835,28.797,128.997,495,Andesite / Basaltic Andesite,Subduction Zone / Oceanic Crust (< 15 km)
358040,Michinmahuida,Chile,South America,Stratovolcano,Eruption Observed,1835,-42.799,-72.445,2452,Andesite / Basaltic Andesite,Subduction Zone / Continental Crust (>25 km)
261020,Seulawah Agam,Indonesia,Indonesia,Stratovolcano,Eruption Observed,1839,5.448,95.658,1810,Andesite / Basaltic Andesite,Subduction Zone / Continental Crust (>25 km)
283080,Midagahara,Japan,"Japan, Taiwan, Marianas",Stratovolcano,Eruption Observed,1839,36.571,137.59,2621,Andesite / Basaltic Andesite,Subduction Zone / Continental Crust (>25 km)
213040,Ararat,Turkey,Mediterranean and Western Asia,Stratovolcano,Eruption Observed,1840,39.7,44.3,5165,Andesite / Basaltic Andesite,Intraplate / Continental Crust (>25 km)
341100,"Orizaba, Pico de",Mexico,México and Central America,Stratovolcano,Eruption Observed,1846,19.03,-97.27,5564,Andesite / Basaltic Andesite,Subduction Zone / Continental Crust (>25 km)
255070,Savo,Solomon Islands,Melanesia and Australia,Stratovolcano,Eruption Observed,1847,-9.13,159.82,485,Andesite / Basaltic Andesite,Subduction Zone / Crust Thickness Unknown
263130,Guntur,Indonesia,Indonesia,Complex,Eruption Observed,1847,-7.143,107.84,2249,Andesite / Basaltic Andesite,Subduction Zone / Continental Crust (>25 km)
290010,Tomariyama [Golovnin],Japan - administered by Russia,Kuril Islands,Caldera,Eruption Observed,1848,43.844,145.504,535,Andesite / Basaltic Andesite,Subduction Zone / Intermediate Crust (15-25 km)
231001,Harrat Ash Shamah,Syria-Jordan-Saudi Arabia,Middle East and Indian Ocean,Volcanic field,Eruption Observed,1850,32.333,37.583,1100,Basalt / Picro-Basalt,Intraplate / Continental Crust (>25 km)
357160,Puntiagudo-Cordon Cenizos,Chile,South America,Stratovolcano,Eruption Observed,1850,-40.969,-72.264,2493,Andesite / Basaltic Andesite,Subduction Zone / Continental Crust (>25 km)
342060,Atitlan,Guatemala,México and Central America,Stratovolcano,Eruption Observed,1853,14.583,-91.186,3535,Andesite / Basaltic Andesite,Subduction Zone / Continental Crust (>25 km)
241030,Taranaki [Egmont],New Zealand,New Zealand to Fiji,Stratovolcano,Eruption Observed,1854,-39.3,174.07,2518,Andesite / Basaltic Andesite,Subduction Zone / Continental Crust (>25 km)
243090,Late,Tonga,New Zealand to Fiji,Stratovolcano,Eruption Observed,1854,-18.806,-174.65,540,Andesite / Basaltic Andesite,Subduction Zone / Oceanic Crust (< 15 km)
274050,Unnamed,Philippines,Philippines and SE Asia,Submarine,Eruption Observed,1854,20.33,121.75,-24,No Data,Subduction Zone / Crust Thickness Unknown
290340,Fuss Peak,Russia,Kuril Islands,Stratovolcano,Eruption Observed,1854,50.267,155.246,1742,Andesite / Basaltic Andesite,Subduction Zone / Continental Crust (>25 km)
213030,Tenduruk Dagi,Turkey,Mediterranean and Western Asia,Shield,Eruption Observed,1855,39.356,43.874,3514,Basalt / Picro-Basalt,Intraplate / Continental Crust (>25 km)
222130,Chyulu Hills,Kenya,Africa and Red Sea,Volcanic field,Eruption Dated,1855,-2.68,37.88,2188,Trachybasalt / Tephrite Basanite,Rift Zone / Continental Crust (>25 km)
274010,Camiguin de Babuyanes,Philippines,Philippines and SE Asia,Stratovolcano,Eruption Observed,1857,18.83,121.86,712,Andesite / Basaltic Andesite,Subduction Zone / Crust Thickness Unknown
344010,Cosiguina,Nicaragua,México and Central America,Stratovolcano,Eruption Observed,1859,12.98,-87.57,872,Andesite / Basaltic Andesite,Subduction Zone / Continental Crust (>25 km)
273090,Cagua,Philippines,Philippines and SE Asia,Stratovolcano,Eruption Observed,1860,18.222,122.123,1133,Andesite / Basaltic Andesite,Subduction Zone / Continental Crust (>25 km)
290090,Chirippusan [Chirip],Japan - administered by Russia,Kuril Islands,Stratovolcano,Eruption Observed,1860,45.338,147.92,1587,Basalt / Picro-Basalt,Subduction Zone / Intermediate Crust (15-25 km)
221100,Dubbi,Eritrea,Africa and Red Sea,Stratovolcano,Eruption Observed,1861,13.579,41.809,1625,Basalt / Picro-Basalt,Rift Zone / Intermediate Crust (15-25 km)
222100,Longonot,Kenya,Africa and Red Sea,Stratovolcano,Eruption Dated,1863,-0.914,36.446,2776,Trachyte / Trachydacite,Rift Zone / Continental Crust (>25 km)
283270,Iwakisan,Japan,"Japan, Taiwan, Marianas",Stratovolcano,Eruption Observed,1863,40.656,140.303,1625,Andesite / Basaltic Andesite,Subduction Zone / Continental Crust (>25 km)
381040,Pico Fracture Zone,Undersea Features,Atlantic Ocean,Submarine,Eruption Observed,1865,38.75,-38.08,-4200,No Data,Intraplate / Oceanic Crust (< 15 km)
244010,Ofu-Olosega,United States,New Zealand to Fiji,Shield,Eruption Observed,1866,-14.175,-169.618,639,Basalt / Picro-Basalt,Subduction Zone / Oceanic Crust (< 15 km)
322010,Hood,United States,Canada and Western USA,Stratovolcano,Eruption Observed,1866,45.374,-121.695,3426,Andesite / Basaltic Andesite,Subduction Zone / Continental Crust (>25 km)
211070,Campi Flegrei Mar Sicilia,Italy,Mediterranean and Western Asia,Submarine,Eruption Observed,1867,37.1,12.7,-8,Trachybasalt / Tephrite Basanite,Rift Zone / Continental Crust (>25 km)
355050,Olca-Paruma,Chile-Bolivia,South America,Stratovolcano,Eruption Observed,1867,-20.939,-68.413,5705,Andesite / Basaltic Andesite,Subduction Zone / Continental Crust (>25 km)
373100,Tjornes Fracture Zone,Iceland,Iceland and Arctic Ocean,Submarine,Eruption Observed,1868,66.3,-17.1,-75,Basalt / Picro-Basalt,Rift Zone / Oceanic Crust (< 15 km)
357080,Antuco,Chile,South America,Stratovolcano,Eruption Observed,1869,-37.406,-71.349,2979,Basalt / Picro-Basalt,Subduction Zone / Continental Crust (>25 km)
358010,Osorno,Chile,South America,Stratovolcano,Eruption Observed,1869,-41.105,-72.496,2659,Basalt / Picro-Basalt,Subduction Zone / Continental Crust (>25 km)
357121,Quetrupillan,Chile,South America,Stratovolcano,Eruption Observed,1872,-39.5,-71.7,2360,Andesite / Basaltic Andesite,Subduction Zone / Continental Crust (>25 km)
271060,Ragang,Philippines,Philippines and SE Asia,Stratovolcano,Eruption Observed,1873,7.7,124.5,2815,Basalt / Picro-Basalt,Subduction Zone / Continental Crust (>25 km)
285011,Esan,Japan,"Japan, Taiwan, Marianas",Lava dome,Eruption Observed,1874,41.805,141.166,618,Andesite / Basaltic Andesite,Subduction Zone / Continental Crust (>25 km)
341030,Ceboruco,Mexico,México and Central America,Stratovolcano,Eruption Observed,1875,21.125,-104.508,2280,Andesite / Basaltic Andesite,Subduction Zone / Continental Crust (>25 km)
313020,Iliamna,United States,Alaska,Stratovolcano,Eruption Observed,1876,60.032,-153.09,3053,Andesite / Basaltic Andesite,Subduction Zone / Continental Crust (>25 km)
355110,Llullaillaco,Chile-Argentina,South America,Stratovolcano,Eruption Observed,1877,-24.72,-68.53,6739,Dacite,Subduction Zone / Continental Crust (>25 km)
311270,Vsevidof,United States,Alaska,Stratovolcano,Eruption Observed,1878,53.13,-168.693,2149,Andesite / Basaltic Andesite,Subduction Zone / Intermediate Crust (15-25 km)
266130,Tangkoko-Duasudara,Indonesia,Indonesia,Stratovolcano,Eruption Observed,1880,1.518,125.185,1334,Andesite / Basaltic Andesite,Subduction Zone / Continental Crust (>25 km)
290020,Raususan [Mendeleev],Japan - administered by Russia,Kuril Islands,Stratovolcano,Eruption Observed,1880,43.979,145.733,882,Andesite / Basaltic Andesite,Subduction Zone / Intermediate Crust (15-25 km)
321010,Baker,United States,Canada and Western USA,Stratovolcano,Eruption Observed,1880,48.777,-121.813,3285,Andesite / Basaltic Andesite,Subduction Zone / Continental Crust (>25 km)
343060,Ilopango,El Salvador,México and Central America,Caldera,Eruption Observed,1880,13.672,-89.053,450,Dacite,Subduction Zone / Continental Crust (>25 km)
382080,Sete Cidades,Portugal,Atlantic Ocean,Stratovolcano,Eruption Observed,1880,37.87,-25.78,856,Trachyte / Trachydacite,Rift Zone / Oceanic Crust (< 15 km)
257090,Traitor's Head,Vanuatu,Melanesia and Australia,Stratovolcano,Eruption Observed,1881,-18.754,169.238,817,Basalt / Picro-Basalt,Subduction Zone / Intermediate Crust (15-25 km)
261070,Singkut,Indonesia,Indonesia,Caldera,Eruption Observed,1881,3.248,98.501,2181,Andesite / Basaltic Andesite,Subduction Zone / Continental Crust (>25 km)
271040,Makaturing,Philippines,Philippines and SE Asia,Stratovolcano,Eruption Observed,1882,7.647,124.32,1940,Basalt / Picro-Basalt,Subduction Zone / Continental Crust (>25 km)
284190,Guguan,United States,"Japan, Taiwan, Marianas",Stratovolcano,Eruption Observed,1883,17.307,145.845,287,Andesite / Basaltic Andesite,Subduction Zone / Crust Thickness Unknown
290210,Ushishur,Russia,Kuril Islands,Caldera,Eruption Observed,1884,47.52,152.8,401,Andesite / Basaltic Andesite,Subduction Zone / Oceanic Crust (< 15 km)
263260,Lawu,Indonesia,Indonesia,Stratovolcano,Eruption Observed,1885,-7.625,111.192,3265,Andesite / Basaltic Andesite,Subduction Zone / Continental Crust (>25 km)
252110,Bamus,Papua New Guinea,Melanesia and Australia,Stratovolcano,Eruption Observed,1886,-5.2,151.23,2248,Andesite / Basaltic Andesite,Subduction Zone / Continental Crust (>25 km)
271070,Musuan,Philippines,Philippines and SE Asia,Lava dome,Eruption Observed,1886,7.877,125.068,646,Andesite / Basaltic Andesite,Subduction Zone / Continental Crust (>25 km)
212050,Nisyros,Greece,Mediterranean and Western Asia,Stratovolcano,Eruption Observed,1888,36.586,27.16,698,Dacite,Subduction Zone / Continental Crust (>25 km)
222020,South Island,Kenya,Africa and Red Sea,Stratovolcano,Eruption Observed,1888,2.63,36.6,800,Basalt / Picro-Basalt,Rift Zone / Continental Crust (>25 km)
283160,Bandaisan,Japan,"Japan, Taiwan, Marianas",Stratovolcano,Eruption Observed,1888,37.601,140.072,1816,Andesite / Basaltic Andesite,Subduction Zone / Continental Crust (>25 km)
211050,Vulcano,Italy,Mediterranean and Western Asia,Stratovolcano,Eruption Observed,1890,38.404,14.962,500,Trachybasalt / Tephrite Basanite,Subduction Zone / Continental Crust (>25 km)
300261,Ushkovsky,Russia,Kamchatka and Mainland Asia,Compound,Eruption Observed,1890,56.113,160.509,3943,Basalt / Picro-Basalt,Subduction Zone / Continental Crust (>25 km)
334130,Southern EPR-Segment J,Undersea Features,Hawaii and Pacific Ocean,Submarine,Eruption Dated,1890,-18.175,-113.35,-2650,Basalt / Picro-Basalt,Rift Zone / Oceanic Crust (< 15 km)
211071,Pantelleria,Italy,Mediterranean and Western Asia,Shield,Eruption Observed,1891,36.77,12.02,836,Rhyolite,Rift Zone / Continental Crust (>25 km)
265040,Wurlali,Indonesia,Indonesia,Stratovolcano,Eruption Observed,1892,-7.125,128.675,868,Andesite / Basaltic Andesite,Subduction Zone / Oceanic Crust (< 15 km)
390015,Melbourne,Antarctica,Antarctica,Stratovolcano,Eruption Dated,1892,-74.35,164.7,2732,Trachyte / Trachydacite,Intraplate / Continental Crust (>25 km)
321030,Rainier,United States,Canada and Western USA,Stratovolcano,Eruption Observed,1894,46.853,-121.76,4392,Andesite / Basaltic Andesite,Subduction Zone / Continental Crust (>25 km)
252040,Dakataua,Papua New Guinea,Melanesia and Australia,Caldera,Eruption Dated,1895,-5.094,150.094,408,Andesite / Basaltic Andesite,Subduction Zone / Continental Crust (>25 km)
352040,Sumaco,Ecuador,South America,Stratovolcano,Evidence Uncertain,1895,-0.538,-77.626,3990,Trachybasalt / Tephrite Basanite,Subduction Zone / Continental Crust (>25 km)
270010,Jolo,Philippines,Philippines and SE Asia,Pyroclastic cone,Eruption Observed,1897,6.013,121.057,811,Basalt / Picro-Basalt,Subduction Zone / Crust Thickness Unknown
263320,Lamongan,Indonesia,Indonesia,Stratovolcano,Eruption Observed,1898,-7.979,113.342,1651,Basalt / Picro-Basalt,Subduction Zone / Continental Crust (>25 km)
285061,Maruyama,Japan,"Japan, Taiwan, Marianas",Stratovolcano,Eruption Observed,1898,43.453,143.036,2013,Andesite / Basaltic Andesite,Subduction Zone / Continental Crust (>25 km)
390010,Buckle Island,Antarctica,Antarctica,Stratovolcano,Eruption Observed,1899,-66.78,163.25,1239,Trachybasalt / Tephrite Basanite,Rift Zone / Oceanic Crust (< 15 km)
221250,Tullu Moje,Ethiopia,Africa and Red Sea,Pyroclastic cone,Eruption Observed,1900,8.159,39.137,2343,Rhyolite,Rift Zone / Continental Crust (>25 km)
300030,Iliinsky,Russia,Kamchatka and Mainland Asia,Stratovolcano,Eruption Observed,1901,51.498,157.203,1555,Andesite / Basaltic Andesite,Subduction Zone / Continental Crust (>25 km)
258020,Hunter Island,France,Melanesia and Australia,Stratovolcano,Eruption Observed,1903,-22.4,172.05,297,Andesite / Basaltic Andesite,Subduction Zone / Crust Thickness Unknown
305060,Changbaishan,China-North Korea,Kamchatka and Mainland Asia,Stratovolcano,Eruption Observed,1903,41.98,128.08,2744,Trachyte / Trachydacite,Intraplate / Continental Crust (>25 km)
265050,Teon,Indonesia,Indonesia,Stratovolcano,Eruption Observed,1904,-6.976,129.144,728,Andesite / Basaltic Andesite,Subduction Zone / Oceanic Crust (< 15 km)
390031,Penguin Island,Antarctica,Antarctica,Stratovolcano,Eruption Observed,1905,-62.1,-57.93,180,Basalt / Picro-Basalt,Intraplate / Continental Crust (>25 km)
284150,Asuncion,United States,"Japan, Taiwan, Marianas",Stratovolcano,Eruption Observed,1906,19.671,145.406,857,Andesite / Basaltic Andesite,Subduction Zone / Crust Thickness Unknown
351070,Dona Juana,Colombia,South America,Stratovolcano,Eruption Observed,1906,1.5,-76.936,4137,Andesite / Basaltic Andesite,Subduction Zone / Continental Crust (>25 km)
353090,Santiago,Ecuador,South America,Shield,Eruption Observed,1906,-0.22,-90.77,920,Basalt / Picro-Basalt,Rift Zone / Oceanic Crust (< 15 km)
300050,Ksudach,Russia,Kamchatka and Mainland Asia,Stratovolcano,Eruption Observed,1907,51.844,157.572,1079,Andesite / Basaltic Andesite,Subduction Zone / Continental Crust (>25 km)
382030,San Jorge,Portugal,Atlantic Ocean,Fissure vent,Eruption Observed,1907,38.65,-28.08,1053,Basalt / Picro-Basalt,Rift Zone / Oceanic Crust (< 15 km)
358063,Reclus,Chile,South America,Pyroclastic cone,Eruption Observed,1908,-50.964,-73.585,1000,Dacite,Subduction Zone / Continental Crust (>25 km)
383030,Tenerife,Spain,Atlantic Ocean,Stratovolcano,Eruption Observed,1909,28.271,-16.641,3715,Phonolite,Intraplate / Oceanic Crust (< 15 km)
222051,Emuruangogolak,Kenya,Africa and Red Sea,Shield,Eruption Dated,1910,1.5,36.33,1285,Trachyte / Trachydacite,Rift Zone / Continental Crust (>25 km)
222160,Meru,Tanzania,Africa and Red Sea,Stratovolcano,Eruption Observed,1910,-3.25,36.75,4565,Phonolite,Rift Zone / Continental Crust (>25 km)
255050,Simbo,Solomon Islands,Melanesia and Australia,Stratovolcano,Eruption Dated,1910,-8.292,156.52,335,Andesite / Basaltic Andesite,Subduction Zone / Crust Thickness Unknown
358070,"Burney, Monte",Chile,South America,Stratovolcano,Eruption Observed,1910,-52.33,-73.4,1758,Andesite / Basaltic Andesite,Subduction Zone / Continental Crust (>25 km)
244040,Savai'i,Samoa,New Zealand to Fiji,Shield,Eruption Observed,1911,-13.612,-172.525,1858,Basalt / Picro-Basalt,Subduction Zone / Oceanic Crust (< 15 km)
382110,Monaco Bank,Portugal,Atlantic Ocean,Submarine,Eruption Observed,1911,37.6,-25.88,-197,No Data,Rift Zone / Oceanic Crust (< 15 km)
390100,Candlemas Island,United Kingdom,Antarctica,Stratovolcano,Eruption Observed,1911,-57.08,-26.67,550,Basalt / Picro-Basalt,Subduction Zone / Oceanic Crust (< 15 km)
252130,Lolobau,Papua New Guinea,Melanesia and Australia,Caldera,Eruption Observed,1912,-4.92,151.158,858,Basalt / Picro-Basalt,Subduction Zone / Continental Crust (>25 km)
312170,Katmai,United States,Alaska,Stratovolcano,Eruption Observed,1912,58.28,-154.963,2047,Andesite / Basaltic Andesite,Subduction Zone / Continental Crust (>25 km)
312180,Novarupta,United States,Alaska,Caldera,Eruption Observed,1912,58.27,-155.157,841,Rhyolite,Subduction Zone / Continental Crust (>25 km)
357021,Maipo,Chile-Argentina,South America,Caldera,Eruption Observed,1912,-34.164,-69.832,5323,Trachyandesite / Basaltic Trachyandesite,Subduction Zone / Continental Crust (>25 km)
355030,Isluga,Chile,South America,Stratovolcano,Eruption Observed,1913,-19.15,-68.83,5550,Andesite / Basaltic Andesite,Subduction Zone / Continental Crust (>25 km)
282040,Nakanoshima,Japan,"Japan, Taiwan, Marianas",Stratovolcano,Eruption Observed,1914,29.859,129.857,979,Andesite / Basaltic Andesite,Subduction Zone / Oceanic Crust (< 15 km)
290161,Milna,Russia,Kuril Islands,Stratovolcano,Eruption Observed,1914,46.815,151.786,1504,Andesite / Basaltic Andesite,Subduction Zone / Oceanic Crust (< 15 km)
311080,Tanaga,United States,Alaska,Stratovolcano,Eruption Observed,1914,51.885,-178.146,1806,Basalt / Picro-Basalt,Subduction Zone / Intermediate Crust (15-25 km)
221112,Alayta,Ethiopia,Africa and Red Sea,Shield,Eruption Observed,1915,12.888,40.573,1496,Basalt / Picro-Basalt,Rift Zone / Intermediate Crust (15-25 km)
334140,Southern EPR-Segment I,Undersea Features,Hawaii and Pacific Ocean,Submarine,Eruption Dated,1915,-18.53,-113.42,-2600,Basalt / Picro-Basalt,Rift Zone / Oceanic Crust (< 15 km)
284080,Sumisujima,Japan,"Japan, Taiwan, Marianas",Submarine,Eruption Observed,1916,31.44,140.051,136,Dacite,Subduction Zone / Oceanic Crust (< 15 km)
284160,Agrigan,United States,"Japan, Taiwan, Marianas",Stratovolcano,Eruption Observed,1917,18.77,145.67,965,Basalt / Picro-Basalt,Subduction Zone / Crust Thickness Unknown
323080,Lassen Volcanic Center,United States,Canada and Western USA,Stratovolcano,Eruption Observed,1917,40.492,-121.508,3187,Andesite / Basaltic Andesite,Subduction Zone / Continental Crust (>25 km)
343050,San Salvador,El Salvador,México and Central America,Stratovolcano,Eruption Observed,1917,13.734,-89.294,1893,Andesite / Basaltic Andesite,Subduction Zone / Continental Crust (>25 km)
357030,Tinguiririca,Chile,South America,Stratovolcano,Eruption Observed,1917,-34.814,-70.352,4280,Andesite / Basaltic Andesite,Subduction Zone / Continental Crust (>25 km)
372030,Katla,Iceland,Iceland and Arctic Ocean,Subglacial,Eruption Observed,1918,63.633,-19.083,1490,Basalt / Picro-Basalt,Rift Zone / Oceanic Crust (< 15 km)
267030,Banua Wuhu,Indonesia,Indonesia,Submarine,Eruption Observed,1919,3.138,125.491,-5,Andesite / Basaltic Andesite,Subduction Zone / Oceanic Crust (< 15 km)
283240,Iwatesan,Japan,"Japan, Taiwan, Marianas",Complex,Eruption Observed,1919,39.853,141.001,2038,Basalt / Picro-Basalt,Subduction Zone / Continental Crust (>25 km)
358030,Huequi,Chile,South America,Lava dome,Eruption Observed,1920,-42.377,-72.578,1318,Andesite / Basaltic Andesite,Subduction Zone / Continental Crust (>25 km)
222030,"Barrier, The",Kenya,Africa and Red Sea,Shield,Eruption Observed,1921,2.32,36.57,1032,Trachyte / Trachydacite,Rift Zone / Continental Crust (>25 km)
261180,Sumbing,Indonesia,Indonesia,Stratovolcano,Eruption Observed,1921,-2.414,101.728,2507,Andesite / Basaltic Andesite,Subduction Zone / Continental Crust (>25 km)
265070,Serua,Indonesia,Indonesia,Stratovolcano,Eruption Observed,1921,-6.312,130.017,608,Andesite / Basaltic Andesite,Subduction Zone / Oceanic Crust (< 15 km)
224004,Santa Isabel,Equatorial Guinea,Africa and Red Sea,Shield,Eruption Observed,1923,3.58,8.75,3007,Basalt / Picro-Basalt,Intraplate / Continental Crust (>25 km)
275060,"Cendres, Ile des",Vietnam,Philippines and SE Asia,Submarine,Eruption Observed,1923,10.158,109.014,-20,Basalt / Picro-Basalt,Intraplate / Continental Crust (>25 km)
300040,Zheltovsky,Russia,Kamchatka and Mainland Asia,Stratovolcano,Eruption Observed,1923,51.577,157.328,1926,Basalt / Picro-Basalt,Subduction Zone / Continental Crust (>25 km)
300200,Kronotsky,Russia,Kamchatka and Mainland Asia,Stratovolcano,Eruption Observed,1923,54.753,160.533,3482,Basalt / Picro-Basalt,Subduction Zone / Continental Crust (>25 km)
261150,Tandikat-Singgalang,Indonesia,Indonesia,Stratovolcano,Eruption Observed,1924,-0.39,100.331,2854,Andesite / Basaltic Andesite,Subduction Zone / Continental Crust (>25 km)
274030,Babuyan Claro,Philippines,Philippines and SE Asia,Stratovolcano,Eruption Observed,1924,19.523,121.94,1080,Andesite / Basaltic Andesite,Subduction Zone / Crust Thickness Unknown
282010,Submarine Volcano NNE of Iriomotejima,Japan,"Japan, Taiwan, Marianas",Submarine,Eruption Observed,1924,24.57,123.93,-200,Rhyolite,Subduction Zone / Oceanic Crust (< 15 km)
290250,Raikoke,Russia,Kuril Islands,Stratovolcano,Eruption Observed,1924,48.292,153.25,551,Basalt / Picro-Basalt,Subduction Zone / Intermediate Crust (15-25 km)
351100,Cumbal,Colombia,South America,Stratovolcano,Eruption Observed,1926,0.95,-77.87,4764,Andesite / Basaltic Andesite,Subduction Zone / Continental Crust (>25 km)
371020,Reykjanes,Iceland,Iceland and Arctic Ocean,Crater rows,Eruption Observed,1926,63.85,-22.566,140,Basalt / Picro-Basalt,Rift Zone / Oceanic Crust (< 15 km)
221122,Manda-Inakir,Ethiopia-Djibouti,Africa and Red Sea,Fissure vent,Eruption Observed,1928,12.38,42.2,600,Basalt / Picro-Basalt,Rift Zone / Intermediate Crust (15-25 km)
353070,Pinta,Ecuador,South America,Shield,Eruption Observed,1928,0.58,-90.75,780,Basalt / Picro-Basalt,Rift Zone / Oceanic Crust (< 15 km)
311260,Kagamil,United States,Alaska,Stratovolcano,Eruption Observed,1929,52.974,-169.72,893,No Data,Subduction Zone / Intermediate Crust (15-25 km)
312090,Aniakchak,United States,Alaska,Caldera,Eruption Observed,1931,56.88,-158.17,1341,Andesite / Basaltic Andesite,Subduction Zone / Continental Crust (>25 km)
243010,Unnamed,Tonga,New Zealand to Fiji,Submarine,Eruption Observed,1932,-21.38,-175.65,-500,No Data,Subduction Zone / Oceanic Crust (< 15 km)
290050,Etorofu-Atosanupuri [Atosanupuri],Japan - administered by Russia,Kuril Islands,Stratovolcano,Eruption Observed,1932,44.808,147.131,1206,Andesite / Basaltic Andesite,Subduction Zone / Intermediate Crust (15-25 km)
360120,Pelee,France,West Indies,Stratovolcano,Eruption Observed,1932,14.809,-61.165,1394,Andesite / Basaltic Andesite,Subduction Zone / Oceanic Crust (< 15 km)
261270,Suoh,Indonesia,Indonesia,Caldera,Eruption Observed,1933,-5.25,104.27,1000,No Data,Subduction Zone / Continental Crust (>25 km)
275001,Hainan Dao,China,Philippines and SE Asia,Pyroclastic cone,Eruption Observed,1933,19.7,110.1,196,Basalt / Picro-Basalt,Intraplate / Continental Crust (>25 km)
290300,Kharimkotan,Russia,Kuril Islands,Stratovolcano,Eruption Observed,1933,49.12,154.508,1145,Andesite / Basaltic Andesite,Subduction Zone / Intermediate Crust (15-25 km)
357050,Descabezado Grande,Chile,South America,Stratovolcano,Eruption Observed,1933,-35.58,-70.75,3953,Andesite / Basaltic Andesite,Subduction Zone / Continental Crust (>25 km)
253030,Victory,Papua New Guinea,Melanesia and Australia,Stratovolcano,Eruption Observed,1935,-9.2,149.07,1925,Andesite / Basaltic Andesite,Subduction Zone / Continental Crust (>25 km)
243050,Falcon Island,Tonga,New Zealand to Fiji,Submarine,Eruption Observed,1936,-20.32,-175.42,-17,Andesite / Basaltic Andesite,Subduction Zone / Oceanic Crust (< 15 km)
285090,Shiretoko-Iozan,Japan,"Japan, Taiwan, Marianas",Stratovolcano,Eruption Observed,1936,44.133,145.161,1562,Andesite / Basaltic Andesite,Subduction Zone / Continental Crust (>25 km)
351110,Chiles-Cerro Negro,Colombia-Ecuador,South America,Stratovolcano,Evidence Uncertain,1936,0.817,-77.938,4698,Dacite,Subduction Zone / Continental Crust (>25 km)
231120,"Dhamar, Harras of",Yemen,Middle East and Indian Ocean,Volcanic field,Eruption Observed,1937,14.57,44.67,3500,Basalt / Picro-Basalt,Intraplate / Continental Crust (>25 km)
261050,"Telong, Bur ni",Indonesia,Indonesia,Stratovolcano,Eruption Observed,1937,4.769,96.821,2617,Andesite / Basaltic Andesite,Subduction Zone / Continental Crust (>25 km)
311210,Yunaska,United States,Alaska,Shield,Eruption Observed,1937,52.643,-170.629,550,Andesite / Basaltic Andesite,Subduction Zone / Intermediate Crust (15-25 km)
357130,Mocho-Choshuenco,Chile,South America,Stratovolcano,Eruption Observed,1937,-39.927,-72.027,2422,Andesite / Basaltic Andesite,Subduction Zone / Continental Crust (>25 km)
263050,Salak,Indonesia,Indonesia,Stratovolcano,Eruption Observed,1938,-6.72,106.73,2211,Andesite / Basaltic Andesite,Subduction Zone / Continental Crust (>25 km)
290320,Nemo Peak,Russia,Kuril Islands,Caldera,Eruption Observed,1938,49.57,154.808,1018,Andesite / Basaltic Andesite,Subduction Zone / Intermediate Crust (15-25 km)
263040,Perbakti-Gagak,Indonesia,Indonesia,Stratovolcano,Eruption Observed,1939,-6.75,106.7,1699,Andesite / Basaltic Andesite,Subduction Zone / Continental Crust (>25 km)
272080,Biliran,Philippines,Philippines and SE Asia,Compound,Eruption Observed,1939,11.523,124.535,1301,Andesite / Basaltic Andesite,Subduction Zone / Continental Crust (>25 km)
261250,Besar,Indonesia,Indonesia,Stratovolcano,Eruption Observed,1940,-4.43,103.67,1899,Andesite / Basaltic Andesite,Subduction Zone / Continental Crust (>25 km)
283190,Zaozan,Japan,"Japan, Taiwan, Marianas",Complex,Eruption Observed,1940,38.144,140.44,1841,Andesite / Basaltic Andesite,Subduction Zone / Continental Crust (>25 km)
351030,"Tolima, Nevado del",Colombia,South America,Stratovolcano,Eruption Observed,1943,4.658,-75.33,5215,Andesite / Basaltic Andesite,Subduction Zone / Continental Crust (>25 km)
211020,Vesuvius,Italy,Mediterranean and Western Asia,Stratovolcano,Eruption Observed,1944,40.821,14.426,1281,Phono-tephrite /  Tephri-phonolite,Subduction Zone / Continental Crust (>25 km)
253040,Waiowa,Papua New Guinea,Melanesia and Australia,Pyroclastic cone,Eruption Observed,1944,-9.57,149.075,640,Trachyandesite / Basaltic Trachyandesite,Subduction Zone / Continental Crust (>25 km)
284110,Kita-Ioto,Japan,"Japan, Taiwan, Marianas",Stratovolcano,Eruption Observed,1945,25.424,141.284,792,Basalt / Picro-Basalt,Subduction Zone / Crust Thickness Unknown
345030,Miravalles,Costa Rica,México and Central America,Stratovolcano,Eruption Observed,1946,10.748,-85.153,2028,Andesite / Basaltic Andesite,Subduction Zone / Continental Crust (>25 km)
212040,Santorini,Greece,Mediterranean and Western Asia,Shield,Eruption Observed,1950,36.404,25.396,367,Dacite,Subduction Zone / Continental Crust (>25 km)
283210,Kurikomayama,Japan,"Japan, Taiwan, Marianas",Stratovolcano,Eruption Observed,1950,38.961,140.788,1627,Andesite / Basaltic Andesite,Subduction Zone / Continental Crust (>25 km)
263170,Cereme,Indonesia,Indonesia,Stratovolcano,Eruption Observed,1951,-6.892,108.4,3078,Andesite / Basaltic Andesite,Subduction Zone / Continental Crust (>25 km)
290080,Sashiusudake [Baransky],Japan - administered by Russia,Kuril Islands,Stratovolcano,Eruption Observed,1951,45.1,148.019,1125,Andesite / Basaltic Andesite,Subduction Zone / Intermediate Crust (15-25 km)
304030,Kunlun Volcanic Group,China,Kamchatka and Mainland Asia,Pyroclastic cone,Eruption Observed,1951,35.52,80.2,5808,Trachyte / Trachydacite,Intraplate / Continental Crust (>25 km)
263290,Arjuno-Welirang,Indonesia,Indonesia,Stratovolcano,Eruption Observed,1952,-7.725,112.58,3339,Andesite / Basaltic Andesite,Subduction Zone / Continental Crust (>25 km)
283140,Nikko-Shiranesan,Japan,"Japan, Taiwan, Marianas",Shield,Eruption Observed,1952,36.799,139.376,2578,Andesite / Basaltic Andesite,Subduction Zone / Continental Crust (>25 km)
290310,Tao-Rusyr Caldera,Russia,Kuril Islands,Stratovolcano,Eruption Observed,1952,49.35,154.7,1325,Andesite / Basaltic Andesite,Subduction Zone / Intermediate Crust (15-25 km)
290350,Karpinsky Group,Russia,Kuril Islands,Cone,Eruption Observed,1952,50.148,155.373,1326,Andesite / Basaltic Andesite,Subduction Zone / Continental Crust (>25 km)
300140,Maly Semyachik,Russia,Kamchatka and Mainland Asia,Caldera,Eruption Observed,1952,54.135,159.674,1527,Basalt / Picro-Basalt,Subduction Zone / Continental Crust (>25 km)
341060,Michoacan-Guanajuato,Mexico,México and Central America,Pyroclastic cone,Eruption Observed,1952,19.85,-101.75,3860,Andesite / Basaltic Andesite,Subduction Zone / Continental Crust (>25 km)
271080,Camiguin,Philippines,Philippines and SE Asia,Stratovolcano,Eruption Observed,1953,9.203,124.673,1552,Andesite / Basaltic Andesite,Subduction Zone / Continental Crust (>25 km)
312140,Martin,United States,Alaska,Stratovolcano,Eruption Dated,1953,58.172,-155.361,1863,Dacite,Subduction Zone / Continental Crust (>25 km)
341020,Barcena,Mexico,México and Central America,Pyroclastic cone,Eruption Observed,1953,19.3,-110.82,332,Trachyte / Trachydacite,Rift Zone / Oceanic Crust (< 15 km)
284121,Kita-Fukutokutai,Japan,"Japan, Taiwan, Marianas",Submarine,Eruption Observed,1954,24.417,141.417,-73,No Data,Subduction Zone / Crust Thickness Unknown
344080,"Pilas, Las",Nicaragua,México and Central America,Complex,Eruption Observed,1954,12.495,-86.688,1088,Andesite / Basaltic Andesite,Subduction Zone / Continental Crust (>25 km)
253010,Lamington,Papua New Guinea,Melanesia and Australia,Stratovolcano,Eruption Observed,1956,-8.95,148.15,1680,Andesite / Basaltic Andesite,Subduction Zone / Continental Crust (>25 km)
258010,Matthew Island,France,Melanesia and Australia,Stratovolcano,Eruption Observed,1956,-22.33,171.32,177,Andesite / Basaltic Andesite,Subduction Zone / Crust Thickness Unknown
223050,Visoke,DR Congo-Rwanda,Africa and Red Sea,Stratovolcano,Eruption Observed,1957,-1.458,29.485,3696,Trachyandesite / Basaltic Trachyandesite,Rift Zone / Continental Crust (>25 km)
243100,Fonualei,Tonga,New Zealand to Fiji,Stratovolcano,Eruption Observed,1957,-18.02,-174.325,180,Dacite,Subduction Zone / Oceanic Crust (< 15 km)
250010,St. Andrew Strait,Papua New Guinea,Melanesia and Australia,Complex,Eruption Observed,1957,-2.38,147.35,270,Rhyolite,Subduction Zone / Oceanic Crust (< 15 km)
263060,Gede-Pangrango,Indonesia,Indonesia,Stratovolcano,Eruption Observed,1957,-6.77,106.965,3008,Andesite / Basaltic Andesite,Subduction Zone / Continental Crust (>25 km)
290180,Zavaritzki Caldera,Russia,Kuril Islands,Caldera,Eruption Observed,1957,46.925,151.95,624,Andesite / Basaltic Andesite,Subduction Zone / Oceanic Crust (< 15 km)
290220,Rasshua,Russia,Kuril Islands,Stratovolcano,Eruption Observed,1957,47.77,153.02,956,Andesite / Basaltic Andesite,Subduction Zone / Oceanic Crust (< 15 km)
382010,Fayal,Portugal,Atlantic Ocean,Stratovolcano,Eruption Observed,1958,38.6,-28.73,1043,Andesite / Basaltic Andesite,Rift Zone / Oceanic Crust (< 15 km)
284134,Kasuga 1,United States,"Japan, Taiwan, Marianas",Submarine,Eruption Observed,1959,21.765,143.71,-598,Andesite / Basaltic Andesite,Subduction Zone / Crust Thickness Unknown
251010,Bam,Papua New Guinea,Melanesia and Australia,Stratovolcano,Eruption Observed,1960,-3.613,144.818,685,Andesite / Basaltic Andesite,Subduction Zone / Continental Crust (>25 km)
290200,Ketoi,Russia,Kuril Islands,Stratovolcano,Eruption Observed,1960,47.35,152.475,1172,Andesite / Basaltic Andesite,Subduction Zone / Oceanic Crust (< 15 km)
355020,Guallatiri,Chile,South America,Stratovolcano,Eruption Observed,1960,-18.42,-69.092,6071,Andesite / Basaltic Andesite,Subduction Zone / Continental Crust (>25 km)
355070,San Pedro-San Pablo,Chile,South America,Stratovolcano,Eruption Observed,1960,-21.888,-68.391,6142,Andesite / Basaltic Andesite,Subduction Zone / Continental Crust (>25 km)
357020,San Jose,Chile-Argentina,South America,Stratovolcano,Eruption Observed,1960,-33.789,-69.895,6070,Andesite / Basaltic Andesite,Subduction Zone / Continental Crust (>25 km)
373060,Askja,Iceland,Iceland and Arctic Ocean,Stratovolcano,Eruption Observed,1961,65.033,-16.783,1080,Basalt / Picro-Basalt,Rift Zone / Oceanic Crust (< 15 km)
386010,Tristan da Cunha,United Kingdom,Atlantic Ocean,Shield,Eruption Observed,1962,-37.092,-12.28,2060,Trachybasalt / Tephrite Basanite,Rift Zone / Oceanic Crust (< 15 km)
390140,Protector Seamounts,United Kingdom,Antarctica,Submarine,Eruption Observed,1962,-55.912,-28.167,-55,Rhyolite,Subduction Zone / Oceanic Crust (< 15 km)
283150,Nasudake,Japan,"Japan, Taiwan, Marianas",Stratovolcano,Eruption Observed,1963,37.125,139.963,1915,Andesite / Basaltic Andesite,Subduction Zone / Continental Crust (>25 km)
264020,Agung,Indonesia,Indonesia,Stratovolcano,Eruption Observed,1964,-8.342,115.508,3142,Andesite / Basaltic Andesite,Subduction Zone / Continental Crust (>25 km)
257010,Suretamatai,Vanuatu,Melanesia and Australia,Complex,Eruption Observed,1966,-13.8,167.47,921,Andesite / Basaltic Andesite,Subduction Zone / Intermediate Crust (15-25 km)
343030,Izalco,El Salvador,México and Central America,Stratovolcano,Eruption Observed,1966,13.813,-89.633,1950,Andesite / Basaltic Andesite,Subduction Zone / Continental Crust (>25 km)
264040,Tambora,Indonesia,Indonesia,Stratovolcano,Eruption Observed,1967,-8.25,118,2850,Trachybasalt / Tephrite Basanite,Subduction Zone / Continental Crust (>25 km)
284140,Farallon de Pajaros,United States,"Japan, Taiwan, Marianas",Stratovolcano,Eruption Observed,1967,20.538,144.896,360,Andesite / Basaltic Andesite,Subduction Zone / Crust Thickness Unknown
357060,"Azul, Cerro",Chile,South America,Stratovolcano,Eruption Observed,1967,-35.653,-70.761,3788,Dacite,Subduction Zone / Continental Crust (>25 km)
264140,Kelimutu,Indonesia,Indonesia,Complex,Eruption Observed,1968,-8.77,121.82,1639,Andesite / Basaltic Andesite,Subduction Zone / Crust Thickness Unknown
265060,Nila,Indonesia,Indonesia,Stratovolcano,Eruption Observed,1968,-6.73,129.5,781,Andesite / Basaltic Andesite,Subduction Zone / Oceanic Crust (< 15 km)
282020,Io-Torishima,Japan,"Japan, Taiwan, Marianas",Complex,Eruption Observed,1968,27.881,128.223,212,Andesite / Basaltic Andesite,Subduction Zone / Oceanic Crust (< 15 km)
373050,Kverkfjoll,Iceland,Iceland and Arctic Ocean,Stratovolcano,Eruption Observed,1968,64.653,-16.647,1930,Basalt / Picro-Basalt,Rift Zone / Oceanic Crust (< 15 km)
264100,Ebulobo,Indonesia,Indonesia,Stratovolcano,Eruption Observed,1969,-8.82,121.18,2124,Andesite / Basaltic Andesite,Subduction Zone / Crust Thickness Unknown
264110,Iya,Indonesia,Indonesia,Stratovolcano,Eruption Observed,1969,-8.897,121.645,637,Basalt / Picro-Basalt,Subduction Zone / Crust Thickness Unknown
334100,Unnamed,Undersea Features,Hawaii and Pacific Ocean,Submarine,Eruption Observed,1969,-8.27,-107.95,-2800,Basalt / Picro-Basalt,Rift Zone / Oceanic Crust (< 15 km)
284070,Myojinsho,Japan,"Japan, Taiwan, Marianas",Submarine,Eruption Observed,1970,31.888,139.918,11,Dacite,Subduction Zone / Oceanic Crust (< 15 km)
333030,Moua Pihaa,France,Hawaii and Pacific Ocean,Submarine,Eruption Dated,1970,-18.325,-148.525,-312,Trachybasalt / Tephrite Basanite,Intraplate / Oceanic Crust (< 15 km)
390030,Deception Island,Antarctica,Antarctica,Caldera,Eruption Observed,1970,-63.001,-60.652,602,Basalt / Picro-Basalt,Intraplate / Continental Crust (>25 km)
263210,Sundoro,Indonesia,Indonesia,Stratovolcano,Eruption Observed,1971,-7.3,109.992,3136,Andesite / Basaltic Andesite,Subduction Zone / Continental Crust (>25 km)
283230,Akita-Komagatake,Japan,"Japan, Taiwan, Marianas",Stratovolcano,Eruption Observed,1971,39.761,140.799,1637,Basalt / Picro-Basalt,Subduction Zone / Continental Crust (>25 km)
383010,La Palma,Spain,Atlantic Ocean,Stratovolcano,Eruption Observed,1971,28.57,-17.83,2426,Trachybasalt / Tephrite Basanite,Intraplate / Oceanic Crust (< 15 km)
250030,Unnamed,Papua New Guinea,Melanesia and Australia,Submarine,Eruption Dated,1972,-3.03,147.78,-1300,No Data,Rift Zone / Continental Crust (>25 km)
290160,Unnamed,Russia,Kuril Islands,Submarine,Eruption Dated,1972,46.47,151.28,-502,No Data,Subduction Zone / Oceanic Crust (< 15 km)
333020,Rocard,France,Hawaii and Pacific Ocean,Submarine,Eruption Dated,1972,-17.662,-148.586,-2515,Trachyte / Trachydacite,Intraplate / Oceanic Crust (< 15 km)
342080,Acatenango,Guatemala,México and Central America,Stratovolcano,Eruption Observed,1972,14.501,-90.876,3976,Andesite / Basaltic Andesite,Subduction Zone / Continental Crust (>25 km)
290120,Kolokol Group,Russia,Kuril Islands,Stratovolcano,Eruption Observed,1973,46.042,150.083,1328,Andesite / Basaltic Andesite,Subduction Zone / Intermediate Crust (15-25 km)
372010,Vestmannaeyjar,Iceland,Iceland and Arctic Ocean,Submarine,Eruption Observed,1973,63.416,-20.266,283,Basalt / Picro-Basalt,Rift Zone / Oceanic Crust (< 15 km)
257070,Kuwae,Vanuatu,Melanesia and Australia,Caldera,Eruption Observed,1974,-16.829,168.536,-2,Basalt / Picro-Basalt,Subduction Zone / Intermediate Crust (15-25 km)
283220,Chokaisan,Japan,"Japan, Taiwan, Marianas",Stratovolcano,Eruption Observed,1974,39.099,140.049,2236,Andesite / Basaltic Andesite,Subduction Zone / Continental Crust (>25 km)
284133,Fukujin,United States,"Japan, Taiwan, Marianas",Submarine,Eruption Observed,1974,21.93,143.47,-217,Andesite / Basaltic Andesite,Subduction Zone / Crust Thickness Unknown
311120,Great Sitkin,United States,Alaska,Stratovolcano,Eruption Observed,1974,52.076,-176.13,1740,Andesite / Basaltic Andesite,Subduction Zone / Intermediate Crust (15-25 km)
312160,Trident,United States,Alaska,Stratovolcano,Eruption Observed,1974,58.236,-155.1,1864,Andesite / Basaltic Andesite,Subduction Zone / Continental Crust (>25 km)
284131,Minami Hiyoshi,Japan,"Japan, Taiwan, Marianas",Submarine,Eruption Observed,1975,23.5,141.935,-107,Trachyandesite / Basaltic Trachyandesite,Subduction Zone / Crust Thickness Unknown
390070,Southern Thule,United Kingdom,Antarctica,Stratovolcano,Eruption Observed,1975,-59.442,-27.225,1075,Andesite / Basaltic Andesite,Subduction Zone / Oceanic Crust (< 15 km)
266110,Mahawu,Indonesia,Indonesia,Stratovolcano,Eruption Observed,1977,1.352,124.865,1299,Andesite / Basaltic Andesite,Subduction Zone / Continental Crust (>25 km)
273070,Taal,Philippines,Philippines and SE Asia,Caldera,Eruption Observed,1977,14.002,120.993,311,Andesite / Basaltic Andesite,Subduction Zone / Continental Crust (>25 km)
283180,Azumayama,Japan,"Japan, Taiwan, Marianas",Stratovolcano,Eruption Observed,1977,37.735,140.244,1949,Andesite / Basaltic Andesite,Subduction Zone / Continental Crust (>25 km)
312131,Ukinrek Maars,United States,Alaska,Maar,Eruption Observed,1977,57.832,-156.51,91,Basalt / Picro-Basalt,Subduction Zone / Continental Crust (>25 km)
351060,Purace,Colombia,South America,Stratovolcano,Eruption Observed,1977,2.32,-76.4,4650,Andesite / Basaltic Andesite,Subduction Zone / Continental Crust (>25 km)
360060,Soufriere Guadeloupe,France,West Indies,Stratovolcano,Eruption Observed,1977,16.044,-61.664,1467,Andesite / Basaltic Andesite,Subduction Zone / Oceanic Crust (< 15 km)
221126,Ardoukoba,Djibouti,Africa and Red Sea,Fissure vent,Eruption Observed,1978,11.58,42.47,298,Basalt / Picro-Basalt,Rift Zone / Intermediate Crust (15-25 km)
274020,Didicas,Philippines,Philippines and SE Asia,Compound,Eruption Observed,1978,19.077,122.202,228,Andesite / Basaltic Andesite,Subduction Zone / Crust Thickness Unknown
243102,Curacoa,Tonga,New Zealand to Fiji,Submarine,Eruption Observed,1979,-15.62,-173.67,-33,Dacite,Subduction Zone / Oceanic Crust (< 15 km)
357140,Carrán-Los Venados,Chile,South America,Pyroclastic cone,Eruption Observed,1979,-40.35,-72.07,1114,Basalt / Picro-Basalt,Subduction Zone / Continental Crust (>25 km)
358059,Arenales,Chile,South America,Stratovolcano,Eruption Observed,1979,-47.2,-73.48,3437,No Data,Subduction Zone / Continental Crust (>25 km)
358060,Lautaro,Chile,South America,Stratovolcano,Eruption Observed,1979,-49.02,-73.55,3607,Dacite,Subduction Zone / Continental Crust (>25 km)
360150,Soufrière St. Vincent,Saint Vincent and the Grenadines,West Indies,Stratovolcano,Eruption Observed,1979,13.33,-61.18,1220,Andesite / Basaltic Andesite,Subduction Zone / Oceanic Crust (< 15 km)
357091,Callaqui,Chile,South America,Stratovolcano,Eruption Observed,1980,-37.92,-71.45,3164,Andesite / Basaltic Andesite,Subduction Zone / Continental Crust (>25 km)
241050,Okataina,New Zealand,New Zealand to Fiji,Lava dome,Eruption Observed,1981,-38.12,176.5,1111,Rhyolite,Subduction Zone / Continental Crust (>25 km)
285040,Shikotsu,Japan,"Japan, Taiwan, Marianas",Caldera,Eruption Observed,1981,42.688,141.38,1320,Andesite / Basaltic Andesite,Subduction Zone / Continental Crust (>25 km)
290030,Chachadake [Tiatia],Japan - administered by Russia,Kuril Islands,Stratovolcano,Eruption Observed,1981,44.353,146.252,1822,Basalt / Picro-Basalt,Subduction Zone / Intermediate Crust (15-25 km)
341120,"Chichon, El",Mexico,México and Central America,Lava dome,Eruption Observed,1982,17.36,-93.228,1150,Trachyandesite / Basaltic Trachyandesite,Subduction Zone / Continental Crust (>25 km)
266010,Colo,Indonesia,Indonesia,Stratovolcano,Eruption Observed,1983,-0.162,121.601,404,Trachyandesite / Basaltic Trachyandesite,Subduction Zone / Continental Crust (>25 km)
283120,Kusatsu-Shiranesan,Japan,"Japan, Taiwan, Marianas",Stratovolcano,Eruption Observed,1983,36.618,138.528,2165,Andesite / Basaltic Andesite,Subduction Zone / Continental Crust (>25 km)
263140,Galunggung,Indonesia,Indonesia,Stratovolcano,Eruption Observed,1984,-7.25,108.058,2168,Basalt / Picro-Basalt,Subduction Zone / Continental Crust (>25 km)
284100,Kaitoku Seamount,Japan,"Japan, Taiwan, Marianas",Submarine,Eruption Observed,1984,26.06,140.933,-173,Basalt / Picro-Basalt,Subduction Zone / Crust Thickness Unknown
332020,Mauna Loa,United States,Hawaii and Pacific Ocean,Shield,Eruption Observed,1984,19.475,-155.608,4170,Basalt / Picro-Basalt,Intraplate / Oceanic Crust (< 15 km)
373080,Krafla,Iceland,Iceland and Arctic Ocean,Caldera,Eruption Observed,1984,65.75,-16.25,800,Basalt / Picro-Basalt,Rift Zone / Oceanic Crust (< 15 km)
243110,Niuafo'ou,Tonga,New Zealand to Fiji,Shield,Eruption Observed,1985,-15.6,-175.63,260,Basalt / Picro-Basalt,Subduction Zone / Oceanic Crust (< 15 km)
333010,Teahitia,France,Hawaii and Pacific Ocean,Submarine,Eruption Dated,1985,-17.564,-148.821,-1743,Trachybasalt / Tephrite Basanite,Intraplate / Oceanic Crust (< 15 km)
354010,"Misti, El",Peru,South America,Stratovolcano,Eruption Observed,1985,-16.294,-71.409,5822,Andesite / Basaltic Andesite,Subduction Zone / Continental Crust (>25 km)
376010,Jan Mayen,Norway,Iceland and Arctic Ocean,Stratovolcano,Eruption Observed,1985,71.087,-8.146,2085,Basalt / Picro-Basalt,Rift Zone / Oceanic Crust (< 15 km)
261120,Sorikmarapi,Indonesia,Indonesia,Stratovolcano,Eruption Observed,1986,0.686,99.539,2145,Andesite / Basaltic Andesite,Subduction Zone / Continental Crust (>25 km)
331030,Cleft Segment,Undersea Features,Hawaii and Pacific Ocean,Submarine,Eruption Observed,1986,44.83,-130.3,-2140,Basalt / Picro-Basalt,Rift Zone / Oceanic Crust (< 15 km)
341130,Tacana,Mexico-Guatemala,México and Central America,Stratovolcano,Eruption Observed,1986,15.132,-92.109,4064,Andesite / Basaltic Andesite,Subduction Zone / Continental Crust (>25 km)
311060,Semisopochnoi,United States,Alaska,Stratovolcano,Eruption Observed,1987,51.93,179.58,1221,Basalt / Picro-Basalt,Subduction Zone / Intermediate Crust (15-25 km)
312060,Kupreanof,United States,Alaska,Stratovolcano,Eruption Observed,1987,56.011,-159.797,1895,Andesite / Basaltic Andesite,Subduction Zone / Continental Crust (>25 km)
357010,Tupungatito,Chile-Argentina,South America,Stratovolcano,Eruption Observed,1987,-33.425,-69.797,5660,Andesite / Basaltic Andesite,Subduction Zone / Continental Crust (>25 km)
265090,Banda Api,Indonesia,Indonesia,Caldera,Eruption Observed,1988,-4.523,129.881,596,Dacite,Subduction Zone / Oceanic Crust (< 15 km)
268070,Makian,Indonesia,Indonesia,Stratovolcano,Eruption Observed,1988,0.32,127.4,1357,Andesite / Basaltic Andesite,Subduction Zone / Oceanic Crust (< 15 km)
358061,Viedma,Argentina,South America,Subglacial,Eruption Observed,1988,-49.358,-73.28,1500,Dacite,Subduction Zone / Continental Crust (>25 km)
283010,Izu-Tobu,Japan,"Japan, Taiwan, Marianas",Pyroclastic cone,Eruption Observed,1989,34.9,139.098,1406,Basalt / Picro-Basalt,Subduction Zone / Continental Crust (>25 km)
284142,Supply Reef,United States,"Japan, Taiwan, Marianas",Submarine,Eruption Dated,1989,20.13,145.1,-8,Andesite / Basaltic Andesite,Subduction Zone / Crust Thickness Unknown
311070,Gareloi,United States,Alaska,Stratovolcano,Eruption Observed,1989,51.79,-178.794,1573,Basalt / Picro-Basalt,Subduction Zone / Intermediate Crust (15-25 km)
333060,Macdonald,Undersea Features,Hawaii and Pacific Ocean,Submarine,Eruption Observed,1989,-28.98,-140.25,-39,Basalt / Picro-Basalt,Intraplate / Oceanic Crust (< 15 km)
284010,Izu-Oshima,Japan,"Japan, Taiwan, Marianas",Stratovolcano,Eruption Observed,1990,34.724,139.394,758,Basalt / Picro-Basalt,Subduction Zone / Oceanic Crust (< 15 km)
311020,Kiska,United States,Alaska,Stratovolcano,Eruption Observed,1990,52.103,177.602,1220,Andesite / Basaltic Andesite,Subduction Zone / Intermediate Crust (15-25 km)
334120,Southern EPR-Segment K,Undersea Features,Hawaii and Pacific Ocean,Submarine,Eruption Observed,1990,-17.436,-113.206,-2566,Basalt / Picro-Basalt,Rift Zone / Oceanic Crust (< 15 km)
357100,Lonquimay,Chile,South America,Stratovolcano,Eruption Observed,1990,-38.379,-71.586,2832,Andesite / Basaltic Andesite,Subduction Zone / Continental Crust (>25 km)
264071,Ranakah,Indonesia,Indonesia,Lava dome,Eruption Observed,1991,-8.62,120.52,2350,Andesite / Basaltic Andesite,Subduction Zone / Continental Crust (>25 km)
353080,Marchena,Ecuador,South America,Shield,Eruption Observed,1991,0.33,-90.47,343,Basalt / Picro-Basalt,Rift Zone / Oceanic Crust (< 15 km)
311300,Bogoslof,United States,Alaska,Submarine,Eruption Observed,1992,53.93,-168.03,150,Trachyandesite / Basaltic Trachyandesite,Subduction Zone / Intermediate Crust (15-25 km)
311320,Akutan,United States,Alaska,Stratovolcano,Eruption Observed,1992,54.134,-165.986,1303,Basalt / Picro-Basalt,Subduction Zone / Intermediate Crust (15-25 km)
311340,Westdahl,United States,Alaska,Stratovolcano,Eruption Observed,1992,54.518,-164.65,1654,Basalt / Picro-Basalt,Subduction Zone / Continental Crust (>25 km)
313040,Spurr,United States,Alaska,Stratovolcano,Eruption Observed,1992,61.299,-152.251,3374,Andesite / Basaltic Andesite,Subduction Zone / Continental Crust (>25 km)
251050,Long Island,Papua New Guinea,Melanesia and Australia,Complex,Eruption Observed,1993,-5.358,147.12,1280,Andesite / Basaltic Andesite,Subduction Zone / Continental Crust (>25 km)
264220,Iliboleng,Indonesia,Indonesia,Stratovolcano,Eruption Observed,1993,-8.342,123.258,1659,Basalt / Picro-Basalt,Subduction Zone / Crust Thickness Unknown
273083,Pinatubo,Philippines,Philippines and SE Asia,Stratovolcano,Eruption Observed,1993,15.13,120.35,1486,Dacite,Subduction Zone / Continental Crust (>25 km)
311180,Seguam,United States,Alaska,Stratovolcano,Eruption Observed,1993,52.315,-172.51,1054,Andesite / Basaltic Andesite,Subduction Zone / Intermediate Crust (15-25 km)
331020,CoAxial Segment,Undersea Features,Hawaii and Pacific Ocean,Submarine,Eruption Observed,1993,46.52,-129.58,-2400,Basalt / Picro-Basalt,Rift Zone / Oceanic Crust (< 15 km)
353040,Alcedo,Ecuador,South America,Shield,Eruption Observed,1993,-0.43,-91.12,1130,Basalt / Picro-Basalt,Rift Zone / Oceanic Crust (< 15 km)
341021,Socorro,Mexico,México and Central America,Shield,Eruption Observed,1994,18.78,-110.95,1050,Trachyte / Trachydacite,Rift Zone / Oceanic Crust (< 15 km)
345060,Irazu,Costa Rica,México and Central America,Stratovolcano,Eruption Observed,1994,9.979,-83.852,3432,Andesite / Basaltic Andesite,Subduction Zone / Continental Crust (>25 km)
234000,Boomerang Seamount,France,Middle East and Indian Ocean,Submarine,Eruption Dated,1995,-37.721,77.825,-650,Basalt / Picro-Basalt,Rift Zone / Oceanic Crust (< 15 km)
243070,Metis Shoal,Tonga,New Zealand to Fiji,Submarine,Eruption Observed,1995,-19.18,-174.87,43,Dacite,Subduction Zone / Oceanic Crust (< 15 km)
283070,Yakedake,Japan,"Japan, Taiwan, Marianas",Stratovolcano,Eruption Observed,1995,36.227,137.587,2455,Andesite / Basaltic Andesite,Subduction Zone / Continental Crust (>25 km)
284202,Ruby,United States,"Japan, Taiwan, Marianas",Submarine,Eruption Observed,1995,15.62,145.57,-230,Basalt / Picro-Basalt,Subduction Zone / Crust Thickness Unknown
311310,Makushin,United States,Alaska,Stratovolcano,Eruption Observed,1995,53.891,-166.923,1800,Andesite / Basaltic Andesite,Subduction Zone / Intermediate Crust (15-25 km)
355040,Irruputuncu,Chile-Bolivia,South America,Stratovolcano,Eruption Observed,1995,-20.73,-68.55,5163,Andesite / Basaltic Andesite,Subduction Zone / Continental Crust (>25 km)
258001,Eastern Gemini Seamount,France,Melanesia and Australia,Submarine,Eruption Observed,1996,-20.98,170.28,-80,Basalt / Picro-Basalt,Rift Zone / Oceanic Crust (< 15 km)
282100,Unzendake,Japan,"Japan, Taiwan, Marianas",Complex,Eruption Observed,1996,32.761,130.299,1483,Andesite / Basaltic Andesite,Subduction Zone / Continental Crust (>25 km)
282120,Kujusan,Japan,"Japan, Taiwan, Marianas",Stratovolcano,Eruption Observed,1996,33.086,131.249,1791,Andesite / Basaltic Andesite,Subduction Zone / Continental Crust (>25 km)
283170,Adatarayama,Japan,"Japan, Taiwan, Marianas",Stratovolcano,Eruption Observed,1996,37.647,140.281,1728,Andesite / Basaltic Andesite,Subduction Zone / Continental Crust (>25 km)
300125,Akademia Nauk,Russia,Kamchatka and Mainland Asia,Stratovolcano,Eruption Observed,1996,53.98,159.45,1180,Andesite / Basaltic Andesite,Subduction Zone / Continental Crust (>25 km)
331031,North Gorda Ridge Segment,Undersea Features,Hawaii and Pacific Ocean,Submarine,Eruption Observed,1996,42.67,-126.78,-3000,Basalt / Picro-Basalt,Rift Zone / Oceanic Crust (< 15 km)
332000,Loihi,United States,Hawaii and Pacific Ocean,Submarine,Eruption Observed,1996,18.92,-155.27,-975,Basalt / Picro-Basalt,Intraplate / Oceanic Crust (< 15 km)
334070,Galapagos Rift,Undersea Features,Hawaii and Pacific Ocean,Submarine,Eruption Observed,1996,0.792,-86.15,-2430,Basalt / Picro-Basalt,Rift Zone / Oceanic Crust (< 15 km)
283260,Akita-Yakeyama,Japan,"Japan, Taiwan, Marianas",Stratovolcano,Eruption Observed,1997,39.964,140.757,1366,Andesite / Basaltic Andesite,Subduction Zone / Continental Crust (>25 km)
311190,Amukta,United States,Alaska,Stratovolcano,Eruption Observed,1997,52.5,-171.252,1066,Andesite / Basaltic Andesite,Subduction Zone / Intermediate Crust (15-25 km)
360101,"Watt, Morne",Dominica,West Indies,Stratovolcano,Eruption Observed,1997,15.307,-61.305,1224,Andesite / Basaltic Andesite,Subduction Zone / Oceanic Crust (< 15 km)
283090,Niigata-Yakeyama,Japan,"Japan, Taiwan, Marianas",Lava dome,Eruption Observed,1998,36.921,138.036,2400,Andesite / Basaltic Andesite,Subduction Zone / Continental Crust (>25 km)
312110,Chiginagak,United States,Alaska,Stratovolcano,Eruption Observed,1998,57.135,-156.99,2221,Andesite / Basaltic Andesite,Subduction Zone / Continental Crust (>25 km)
243030,Unnamed,Tonga,New Zealand to Fiji,Submarine,Eruption Observed,1999,-20.85,-175.53,-13,No Data,Subduction Zone / Oceanic Crust (< 15 km)
263350,Ijen,Indonesia,Indonesia,Stratovolcano,Eruption Observed,1999,-8.058,114.242,2769,Andesite / Basaltic Andesite,Subduction Zone / Continental Crust (>25 km)
290100,Moyorodake [Medvezhia],Japan - administered by Russia,Kuril Islands,Stratovolcano,Eruption Observed,1999,45.389,148.838,1124,Andesite / Basaltic Andesite,Subduction Zone / Intermediate Crust (15-25 km)
344070,"Negro, Cerro",Nicaragua,México and Central America,Pyroclastic cone,Eruption Observed,1999,12.506,-86.702,728,Basalt / Picro-Basalt,Subduction Zone / Continental Crust (>25 km)
377020,East Gakkel Ridge at 85°E,Undersea Features,Iceland and Arctic Ocean,Submarine,Evidence Credible,1999,85.608,85.25,-3800,No Data,Rift Zone / Oceanic Crust (< 15 km)
300170,Uzon,Russia,Kamchatka and Mainland Asia,Caldera,Eruption Dated,200,54.5,159.97,1617,Andesite / Basaltic Andesite,Subduction Zone / Continental Crust (>25 km)
358052,Melimoyu,Chile,South America,Stratovolcano,Eruption Dated,200,-44.08,-72.88,2400,Andesite / Basaltic Andesite,Subduction Zone / Continental Crust (>25 km)
370010,Snaefellsjokull,Iceland,Iceland and Arctic Ocean,Stratovolcano,Eruption Dated,200,64.8,-23.783,1446,No Data,Rift Zone / Oceanic Crust (< 15 km)
224010,Cameroon,Cameroon,Africa and Red Sea,Stratovolcano,Eruption Observed,2000,4.203,9.17,4095,Trachybasalt / Tephrite Basanite,Intraplate / Continental Crust (>25 km)
261030,Peuet Sague,Indonesia,Indonesia,Complex,Eruption Observed,2000,4.914,96.329,2801,Andesite / Basaltic Andesite,Subduction Zone / Continental Crust (>25 km)
261220,Kaba,Indonesia,Indonesia,Stratovolcano,Eruption Observed,2000,-3.52,102.62,1952,Andesite / Basaltic Andesite,Subduction Zone / Continental Crust (>25 km)
264010,Batur,Indonesia,Indonesia,Caldera,Eruption Observed,2000,-8.242,115.375,1717,Andesite / Basaltic Andesite,Subduction Zone / Continental Crust (>25 km)
285020,Hokkaido-Komagatake,Japan,"Japan, Taiwan, Marianas",Stratovolcano,Eruption Observed,2000,42.063,140.677,1131,Andesite / Basaltic Andesite,Subduction Zone / Continental Crust (>25 km)
300060,Mutnovsky,Russia,Kamchatka and Mainland Asia,Complex,Eruption Observed,2000,52.449,158.196,2288,Basalt / Picro-Basalt,Subduction Zone / Continental Crust (>25 km)
372070,Hekla,Iceland,Iceland and Arctic Ocean,Stratovolcano,Eruption Observed,2000,63.983,-19.666,1490,Andesite / Basaltic Andesite,Rift Zone / Oceanic Crust (< 15 km)
382050,Terceira,Portugal,Atlantic Ocean,Stratovolcano,Eruption Observed,2000,38.73,-27.32,1023,Basalt / Picro-Basalt,Rift Zone / Oceanic Crust (< 15 km)
243091,Unnamed,Tonga,New Zealand to Fiji,Submarine,Eruption Observed,2001,-18.325,-174.365,-40,Dacite,Subduction Zone / Oceanic Crust (< 15 km)
264090,Inielika,Indonesia,Indonesia,Complex,Eruption Observed,2001,-8.73,120.98,1559,Andesite / Basaltic Andesite,Subduction Zone / Crust Thickness Unknown
285030,Toya,Japan,"Japan, Taiwan, Marianas",Stratovolcano,Eruption Observed,2001,42.544,140.839,733,Basalt / Picro-Basalt,Subduction Zone / Continental Crust (>25 km)
300100,Avachinsky,Russia,Kamchatka and Mainland Asia,Stratovolcano,Eruption Observed,2001,53.256,158.836,2717,Andesite / Basaltic Andesite,Subduction Zone / Continental Crust (>25 km)
263100,Papandayan,Indonesia,Indonesia,Stratovolcano,Eruption Observed,2002,-7.32,107.73,2665,Andesite / Basaltic Andesite,Subduction Zone / Continental Crust (>25 km)
267010,Ruang,Indonesia,Indonesia,Stratovolcano,Eruption Observed,2002,2.3,125.37,725,Andesite / Basaltic Andesite,Subduction Zone / Oceanic Crust (< 15 km)
284090,Izu-Torishima,Japan,"Japan, Taiwan, Marianas",Stratovolcano,Eruption Observed,2002,30.484,140.303,394,Basalt / Picro-Basalt,Subduction Zone / Oceanic Crust (< 15 km)
315020,Wrangell,United States,Alaska,Shield,Eruption Observed,2002,62.006,-144.017,4278,Andesite / Basaltic Andesite,Intraplate / Continental Crust (>25 km)
352020,Guagua Pichincha,Ecuador,South America,Stratovolcano,Eruption Observed,2002,-0.171,-78.598,4784,Andesite / Basaltic Andesite,Subduction Zone / Continental Crust (>25 km)
244000,Vailulu'u,United States,New Zealand to Fiji,Submarine,Eruption Observed,2003,-14.215,-169.058,-592,Basalt / Picro-Basalt,Subduction Zone / Oceanic Crust (< 15 km)
264180,Lewotobi,Indonesia,Indonesia,Stratovolcano,Eruption Observed,2003,-8.542,122.775,1703,Andesite / Basaltic Andesite,Subduction Zone / Crust Thickness Unknown
264200,Leroboleng,Indonesia,Indonesia,Complex,Eruption Observed,2003,-8.365,122.833,1095,Andesite / Basaltic Andesite,Subduction Zone / Crust Thickness Unknown
234070,Marion Island,South Africa,Middle East and Indian Ocean,Shield,Eruption Observed,2004,-46.9,37.75,1230,Basalt / Picro-Basalt,Rift Zone / Oceanic Crust (< 15 km)
257060,Epi,Vanuatu,Melanesia and Australia,Stratovolcano,Eruption Observed,2004,-16.68,168.37,833,Basalt / Picro-Basalt,Subduction Zone / Intermediate Crust (15-25 km)
267040,Awu,Indonesia,Indonesia,Stratovolcano,Eruption Observed,2004,3.67,125.5,1320,Andesite / Basaltic Andesite,Subduction Zone / Oceanic Crust (< 15 km)
285050,Tokachidake,Japan,"Japan, Taiwan, Marianas",Stratovolcano,Eruption Observed,2004,43.418,142.686,2077,Andesite / Basaltic Andesite,Subduction Zone / Continental Crust (>25 km)
386011,Nightingale Island,United Kingdom,Atlantic Ocean,Stratovolcano,Eruption Observed,2004,-37.42,-12.48,365,Trachyte / Trachydacite,Rift Zone / Oceanic Crust (< 15 km)
221113,Dabbahu,Ethiopia,Africa and Red Sea,Stratovolcano,Eruption Observed,2005,12.595,40.48,1401,Basalt / Picro-Basalt,Rift Zone / Intermediate Crust (15-25 km)
234011,McDonald Islands,Australia,Middle East and Indian Ocean,Complex,Eruption Observed,2005,-53.03,72.6,230,Phonolite,Intraplate / Oceanic Crust (< 15 km)
266020,Ambang,Indonesia,Indonesia,Complex,Eruption Observed,2005,0.75,124.42,1795,Andesite / Basaltic Andesite,Subduction Zone / Continental Crust (>25 km)
343020,Santa Ana,El Salvador,México and Central America,Stratovolcano,Eruption Observed,2005,13.853,-89.63,2381,Andesite / Basaltic Andesite,Subduction Zone / Continental Crust (>25 km)
353050,"Negra, Sierra",Ecuador,South America,Shield,Eruption Observed,2005,-0.83,-91.17,1124,Basalt / Picro-Basalt,Rift Zone / Oceanic Crust (< 15 km)
242030,Raoul Island,New Zealand,New Zealand to Fiji,Stratovolcano,Eruption Observed,2006,-29.27,-177.92,516,Andesite / Basaltic Andesite,Subduction Zone / Oceanic Crust (< 15 km)
243080,Home Reef,Tonga,New Zealand to Fiji,Submarine,Eruption Observed,2006,-18.992,-174.775,-10,Dacite,Subduction Zone / Oceanic Crust (< 15 km)
312260,Fourpeaked,United States,Alaska,Stratovolcano,Eruption Observed,2006,58.77,-153.672,2105,Andesite / Basaltic Andesite,Subduction Zone / Continental Crust (>25 km)
313010,Augustine,United States,Alaska,Lava dome,Eruption Observed,2006,59.363,-153.43,1252,Andesite / Basaltic Andesite,Subduction Zone / Continental Crust (>25 km)
334050,Unnamed,Undersea Features,Hawaii and Pacific Ocean,Submarine,Eruption Observed,2006,9.83,-104.3,-2500,Basalt / Picro-Basalt,Rift Zone / Oceanic Crust (< 15 km)
233010,Karthala,Comoros,Middle East and Indian Ocean,Shield,Eruption Observed,2007,-11.75,43.38,2361,Basalt / Picro-Basalt,Intraplate / Oceanic Crust (< 15 km)
241100,Ruapehu,New Zealand,New Zealand to Fiji,Stratovolcano,Eruption Observed,2007,-39.28,175.57,2797,Andesite / Basaltic Andesite,Subduction Zone / Continental Crust (>25 km)
251070,Ritter Island,Papua New Guinea,Melanesia and Australia,Stratovolcano,Eruption Observed,2007,-5.519,148.115,75,Basalt / Picro-Basalt,Subduction Zone / Continental Crust (>25 km)
255060,Kavachi,Solomon Islands,Melanesia and Australia,Submarine,Eruption Observed,2007,-9.02,157.95,-20,Andesite / Basaltic Andesite,Subduction Zone / Crust Thickness Unknown
257050,Lopevi,Vanuatu,Melanesia and Australia,Stratovolcano,Eruption Observed,2007,-16.507,168.346,1413,Basalt / Picro-Basalt,Subduction Zone / Intermediate Crust (15-25 km)
261160,Talang,Indonesia,Indonesia,Stratovolcano,Eruption Observed,2007,-0.978,100.679,2597,Andesite / Basaltic Andesite,Subduction Zone / Continental Crust (>25 km)
268040,Gamkonora,Indonesia,Indonesia,Stratovolcano,Eruption Observed,2007,1.38,127.53,1635,Andesite / Basaltic Andesite,Subduction Zone / Oceanic Crust (< 15 km)
311161,Korovin,United States,Alaska,Stratovolcano,Eruption Observed,2007,52.381,-174.166,1518,Basalt / Picro-Basalt,Subduction Zone / Continental Crust (>25 km)
390081,Montagu Island,United Kingdom,Antarctica,Shield,Eruption Observed,2007,-58.445,-26.374,1370,Basalt / Picro-Basalt,Subduction Zone / Oceanic Crust (< 15 km)
221010,"Tair, Jebel at",Yemen,Africa and Red Sea,Stratovolcano,Eruption Observed,2008,15.55,41.83,244,Trachybasalt / Tephrite Basanite,Rift Zone / Oceanic Crust (< 15 km)
221060,Alu-Dalafilla,Ethiopia,Africa and Red Sea,Fissure vent,Eruption Observed,2008,13.793,40.553,578,Basalt / Picro-Basalt,Rift Zone / Intermediate Crust (15-25 km)
241130,Rumble III,New Zealand,New Zealand to Fiji,Submarine,Eruption Observed,2008,-35.745,178.478,-220,Andesite / Basaltic Andesite,Subduction Zone / Oceanic Crust (< 15 km)
243120,Tafu-Maka,Tonga,New Zealand to Fiji,Submarine,Eruption Observed,2008,-15.37,-174.23,-1400,Basalt / Picro-Basalt,Rift Zone / Oceanic Crust (< 15 km)
252070,Krummel-Garbuna-Welcker,Papua New Guinea,Melanesia and Australia,Stratovolcano,Eruption Observed,2008,-5.416,150.027,564,Andesite / Basaltic Andesite,Subduction Zone / Continental Crust (>25 km)
264160,Egon,Indonesia,Indonesia,Stratovolcano,Eruption Observed,2008,-8.676,122.455,1661,Andesite / Basaltic Andesite,Subduction Zone / Crust Thickness Unknown
284200,Anatahan,United States,"Japan, Taiwan, Marianas",Stratovolcano,Eruption Observed,2008,16.35,145.67,790,Andesite / Basaltic Andesite,Subduction Zone / Crust Thickness Unknown
285070,Akan,Japan,"Japan, Taiwan, Marianas",Caldera,Eruption Observed,2008,43.384,144.013,1499,Andesite / Basaltic Andesite,Subduction Zone / Continental Crust (>25 km)
311130,Kasatochi,United States,Alaska,Stratovolcano,Eruption Observed,2008,52.177,-175.508,314,Basalt / Picro-Basalt,Subduction Zone / Intermediate Crust (15-25 km)
311290,Okmok,United States,Alaska,Shield,Eruption Observed,2008,53.43,-168.13,1073,Basalt / Picro-Basalt,Subduction Zone / Intermediate Crust (15-25 km)
321050,St. Helens,United States,Canada and Western USA,Stratovolcano,Eruption Observed,2008,46.2,-122.18,2549,Dacite,Subduction Zone / Continental Crust (>25 km)
353060,"Azul, Cerro",Ecuador,South America,Shield,Eruption Observed,2008,-0.92,-91.408,1640,Basalt / Picro-Basalt,Rift Zone / Oceanic Crust (< 15 km)
221115,Manda Hararo,Ethiopia,Africa and Red Sea,Shield,Eruption Observed,2009,12.17,40.82,600,Basalt / Picro-Basalt,Rift Zone / Intermediate Crust (15-25 km)
243130,West Mata,Tonga,New Zealand to Fiji,Submarine,Eruption Observed,2009,-15.1,-173.75,-1174,Andesite / Basaltic Andesite,Subduction Zone / Oceanic Crust (< 15 km)
261230,Dempo,Indonesia,Indonesia,Stratovolcano,Eruption Observed,2009,-4.03,103.13,3173,Andesite / Basaltic Andesite,Subduction Zone / Continental Crust (>25 km)
263200,Dieng Volcanic Complex,Indonesia,Indonesia,Complex,Eruption Observed,2009,-7.2,109.92,2565,Andesite / Basaltic Andesite,Subduction Zone / Continental Crust (>25 km)
290240,Sarychev Peak,Russia,Kuril Islands,Stratovolcano,Eruption Observed,2009,48.092,153.2,1496,Andesite / Basaltic Andesite,Subduction Zone / Intermediate Crust (15-25 km)
300090,Koryaksky,Russia,Kamchatka and Mainland Asia,Stratovolcano,Eruption Observed,2009,53.321,158.712,3430,Andesite / Basaltic Andesite,Subduction Zone / Continental Crust (>25 km)
313030,Redoubt,United States,Alaska,Stratovolcano,Eruption Observed,2009,60.485,-152.742,3108,Andesite / Basaltic Andesite,Subduction Zone / Continental Crust (>25 km)
353010,Fernandina,Ecuador,South America,Shield,Eruption Observed,2009,-0.37,-91.55,1476,Basalt / Picro-Basalt,Rift Zone / Oceanic Crust (< 15 km)
357110,Llaima,Chile,South America,Stratovolcano,Eruption Observed,2009,-38.692,-71.729,3125,Basalt / Picro-Basalt,Subduction Zone / Continental Crust (>25 km)
284040,Miyakejima,Japan,"Japan, Taiwan, Marianas",Stratovolcano,Eruption Observed,2010,34.094,139.526,775,Basalt / Picro-Basalt,Subduction Zone / Oceanic Crust (< 15 km)
284130,Fukutoku-Oka-no-Ba,Japan,"Japan, Taiwan, Marianas",Submarine,Eruption Observed,2010,24.285,141.481,-29,Trachyandesite / Basaltic Trachyandesite,Subduction Zone / Crust Thickness Unknown
284193,South Sarigan Seamount,United States,"Japan, Taiwan, Marianas",Submarine,Eruption Observed,2010,16.58,145.78,-184,No Data,Subduction Zone / Crust Thickness Unknown
284211,NW Rota-1,United States,"Japan, Taiwan, Marianas",Submarine,Eruption Observed,2010,14.601,144.775,-517,Basalt / Picro-Basalt,Subduction Zone / Crust Thickness Unknown
290270,Ekarma,Russia,Kuril Islands,Stratovolcano,Eruption Observed,2010,48.958,153.93,1170,Andesite / Basaltic Andesite,Subduction Zone / Intermediate Crust (15-25 km)
300070,Gorely,Russia,Kamchatka and Mainland Asia,Caldera,Eruption Observed,2010,52.559,158.03,1799,Basalt / Picro-Basalt,Subduction Zone / Continental Crust (>25 km)
345033,Arenal,Costa Rica,México and Central America,Stratovolcano,Eruption Observed,2010,10.463,-84.703,1670,Andesite / Basaltic Andesite,Subduction Zone / Continental Crust (>25 km)
372020,Eyjafjallajokull,Iceland,Iceland and Arctic Ocean,Stratovolcano,Eruption Observed,2010,63.633,-19.633,1651,Basalt / Picro-Basalt,Rift Zone / Oceanic Crust (< 15 km)
221041,Dallol,Ethiopia,Africa and Red Sea,Explosion crater,Eruption Observed,2011,14.242,40.3,-48,No Data,Rift Zone / Intermediate Crust (15-25 km)
257020,Gaua,Vanuatu,Melanesia and Australia,Stratovolcano,Eruption Observed,2011,-14.27,167.5,797,Andesite / Basaltic Andesite,Subduction Zone / Intermediate Crust (15-25 km)
257030,Aoba,Vanuatu,Melanesia and Australia,Shield,Eruption Observed,2011,-15.4,167.83,1496,Basalt / Picro-Basalt,Subduction Zone / Intermediate Crust (15-25 km)
282090,Kirishimayama,Japan,"Japan, Taiwan, Marianas",Shield,Eruption Observed,2011,31.934,130.862,1700,Andesite / Basaltic Andesite,Subduction Zone / Continental Crust (>25 km)
344120,Concepcion,Nicaragua,México and Central America,Stratovolcano,Eruption Observed,2011,11.538,-85.622,1700,Andesite / Basaltic Andesite,Subduction Zone / Continental Crust (>25 km)
357040,Planchon-Peteroa,Chile,South America,Stratovolcano,Eruption Observed,2011,-35.223,-70.568,3977,Andesite / Basaltic Andesite,Subduction Zone / Continental Crust (>25 km)
358041,Chaiten,Chile,South America,Caldera,Eruption Observed,2011,-42.833,-72.646,1122,Rhyolite,Subduction Zone / Continental Crust (>25 km)
358057,"Hudson, Cerro",Chile,South America,Stratovolcano,Eruption Observed,2011,-45.9,-72.97,1905,Basalt / Picro-Basalt,Subduction Zone / Continental Crust (>25 km)
373010,Grimsvotn,Iceland,Iceland and Arctic Ocean,Caldera,Eruption Observed,2011,64.416,-17.316,1719,Basalt / Picro-Basalt,Rift Zone / Oceanic Crust (< 15 km)
221101,Nabro,Eritrea,Africa and Red Sea,Stratovolcano,Eruption Observed,2012,13.37,41.7,2218,Trachyte / Trachydacite,Rift Zone / Intermediate Crust (15-25 km)
241080,Tongariro,New Zealand,New Zealand to Fiji,Stratovolcano,Eruption Observed,2012,-39.157,175.632,1978,Andesite / Basaltic Andesite,Subduction Zone / Continental Crust (>25 km)
242005,Havre Seamount,New Zealand,New Zealand to Fiji,Submarine,Eruption Observed,2012,-31.08,-179.033,-897,No Data,Subduction Zone / Oceanic Crust (< 15 km)
242050,Monowai,New Zealand,New Zealand to Fiji,Submarine,Eruption Observed,2012,-25.887,-177.188,-132,Basalt / Picro-Basalt,Subduction Zone / Oceanic Crust (< 15 km)
252080,Witori,Papua New Guinea,Melanesia and Australia,Caldera,Eruption Observed,2012,-5.576,150.516,724,Dacite,Subduction Zone / Continental Crust (>25 km)
256010,Tinakula,Solomon Islands,Melanesia and Australia,Stratovolcano,Eruption Observed,2012,-10.38,165.8,851,Andesite / Basaltic Andesite,Subduction Zone / Crust Thickness Unknown
264230,Lewotolo,Indonesia,Indonesia,Stratovolcano,Eruption Observed,2012,-8.272,123.505,1423,Andesite / Basaltic Andesite,Subduction Zone / Crust Thickness Unknown
284120,Ioto,Japan,"Japan, Taiwan, Marianas",Caldera,Eruption Observed,2012,24.751,141.289,169,Trachyandesite / Basaltic Trachyandesite,Subduction Zone / Crust Thickness Unknown
284170,Pagan,United States,"Japan, Taiwan, Marianas",Stratovolcano,Eruption Observed,2012,18.13,145.8,570,Basalt / Picro-Basalt,Subduction Zone / Crust Thickness Unknown
311110,Kanaga,United States,Alaska,Stratovolcano,Eruption Observed,2012,51.923,-177.168,1307,Andesite / Basaltic Andesite,Subduction Zone / Intermediate Crust (15-25 km)
351050,"Huila, Nevado del",Colombia,South America,Stratovolcano,Eruption Observed,2012,2.93,-76.03,5364,Andesite / Basaltic Andesite,Subduction Zone / Continental Crust (>25 km)
357150,Puyehue-Cordon Caulle,Chile,South America,Stratovolcano,Eruption Observed,2012,-40.59,-72.117,2236,Andesite / Basaltic Andesite,Subduction Zone / Continental Crust (>25 km)
383020,Hierro,Spain,Atlantic Ocean,Shield,Eruption Observed,2012,27.73,-18.03,1500,Trachybasalt / Tephrite Basanite,Intraplate / Oceanic Crust (< 15 km)
221020,Zubair Group,Yemen,Africa and Red Sea,Shield,Eruption Observed,2013,15.05,42.18,191,Basalt / Picro-Basalt,Rift Zone / Oceanic Crust (< 15 km)
222120,"Lengai, Ol Doinyo",Tanzania,Africa and Red Sea,Stratovolcano,Eruption Observed,2013,-2.764,35.914,2962,Foidite,Rift Zone / Continental Crust (>25 km)
263090,Tangkubanparahu,Indonesia,Indonesia,Stratovolcano,Eruption Observed,2013,-6.77,107.6,2084,Andesite / Basaltic Andesite,Subduction Zone / Continental Crust (>25 km)
264250,Iliwerung,Indonesia,Indonesia,Complex,Eruption Observed,2013,-8.53,123.57,1018,Basalt / Picro-Basalt,Subduction Zone / Crust Thickness Unknown
282060,Kikai,Japan,"Japan, Taiwan, Marianas",Caldera,Eruption Observed,2013,30.789,130.308,704,Rhyolite,Subduction Zone / Oceanic Crust (< 15 km)
290070,Etorofu-Yakeyama [Grozny Group],Japan - administered by Russia,Kuril Islands,Complex,Eruption Observed,2013,45.012,147.871,1158,Andesite / Basaltic Andesite,Subduction Zone / Intermediate Crust (15-25 km)
300230,Kizimen,Russia,Kamchatka and Mainland Asia,Stratovolcano,Eruption Observed,2013,55.131,160.32,2334,Andesite / Basaltic Andesite,Subduction Zone / Continental Crust (>25 km)
300240,Tolbachik,Russia,Kamchatka and Mainland Asia,Shield,Eruption Observed,2013,55.832,160.326,3611,Basalt / Picro-Basalt,Subduction Zone / Continental Crust (>25 km)
312070,Veniaminof,United States,Alaska,Stratovolcano,Eruption Observed,2013,56.17,-159.38,2507,Andesite / Basaltic Andesite,Subduction Zone / Continental Crust (>25 km)
360050,Soufrière Hills,United Kingdom,West Indies,Stratovolcano,Eruption Observed,2013,16.72,-62.18,915,Andesite / Basaltic Andesite,Subduction Zone / Oceanic Crust (< 15 km)
243060,Tofua,Tonga,New Zealand to Fiji,Caldera,Eruption Observed,2014,-19.75,-175.07,515,Andesite / Basaltic Andesite,Subduction Zone / Oceanic Crust (< 15 km)
251030,Karkar,Papua New Guinea,Melanesia and Australia,Stratovolcano,Eruption Observed,2014,-4.649,145.964,1839,Andesite / Basaltic Andesite,Subduction Zone / Continental Crust (>25 km)
252140,Rabaul,Papua New Guinea,Melanesia and Australia,Pyroclastic shield,Eruption Observed,2014,-4.271,152.203,688,Dacite,Subduction Zone / Continental Crust (>25 km)
262000,Krakatau,Indonesia,Indonesia,Caldera,Eruption Observed,2014,-6.102,105.423,813,Andesite / Basaltic Andesite,Subduction Zone / Continental Crust (>25 km)
263180,Slamet,Indonesia,Indonesia,Stratovolcano,Eruption Observed,2014,-7.242,109.208,3428,Basalt / Picro-Basalt,Subduction Zone / Continental Crust (>25 km)
263250,Merapi,Indonesia,Indonesia,Stratovolcano,Eruption Observed,2014,-7.542,110.442,2968,Andesite / Basaltic Andesite,Subduction Zone / Continental Crust (>25 km)
263280,Kelut,Indonesia,Indonesia,Stratovolcano,Eruption Observed,2014,-7.93,112.308,1731,Andesite / Basaltic Andesite,Subduction Zone / Continental Crust (>25 km)
264150,Paluweh,Indonesia,Indonesia,Stratovolcano,Eruption Observed,2014,-8.32,121.708,875,Andesite / Basaltic Andesite,Subduction Zone / Crust Thickness Unknown
273030,Mayon,Philippines,Philippines and SE Asia,Stratovolcano,Eruption Observed,2014,13.257,123.685,2462,Andesite / Basaltic Andesite,Subduction Zone / Continental Crust (>25 km)
283040,Ontakesan,Japan,"Japan, Taiwan, Marianas",Complex,Eruption Observed,2014,35.893,137.48,3067,Andesite / Basaltic Andesite,Subduction Zone / Continental Crust (>25 km)
284141,Ahyi,United States,"Japan, Taiwan, Marianas",Submarine,Eruption Dated,2014,20.42,145.03,-75,Andesite / Basaltic Andesite,Subduction Zone / Crust Thickness Unknown
290290,Sinarka,Russia,Kuril Islands,Stratovolcano,Eruption Observed,2014,48.875,154.175,934,Andesite / Basaltic Andesite,Subduction Zone / Intermediate Crust (15-25 km)
345020,Rincon de la Vieja,Costa Rica,México and Central America,Complex,Eruption Observed,2014,10.83,-85.324,1916,Andesite / Basaltic Andesite,Subduction Zone / Continental Crust (>25 km)
351080,Galeras,Colombia,South America,Complex,Eruption Observed,2014,1.22,-77.37,4276,Andesite / Basaltic Andesite,Subduction Zone / Continental Crust (>25 km)
223020,Nyamuragira,DR Congo,Africa and Red Sea,Shield,Eruption Observed,2015,-1.408,29.2,3058,Trachybasalt / Tephrite Basanite,Rift Zone / Continental Crust (>25 km)
243040,Hunga Tonga-Hunga Ha'apai,Tonga,New Zealand to Fiji,Submarine,Eruption Observed,2015,-20.536,-175.382,114,Andesite / Basaltic Andesite,Subduction Zone / Oceanic Crust (< 15 km)
261140,Marapi,Indonesia,Indonesia,Complex,Eruption Observed,2015,-0.381,100.473,2891,Andesite / Basaltic Andesite,Subduction Zone / Continental Crust (>25 km)
263340,Raung,Indonesia,Indonesia,Stratovolcano,Eruption Observed,2015,-8.119,114.056,3260,Andesite / Basaltic Andesite,Subduction Zone / Continental Crust (>25 km)
264050,Sangeang Api,Indonesia,Indonesia,Complex,Eruption Observed,2015,-8.2,119.07,1949,Trachybasalt / Tephrite Basanite,Subduction Zone / Continental Crust (>25 km)
264260,"Tara, Batu",Indonesia,Indonesia,Stratovolcano,Eruption Observed,2015,-7.791,123.585,633,Trachybasalt / Tephrite Basanite,Subduction Zone / Oceanic Crust (< 15 km)
264270,Sirung,Indonesia,Indonesia,Complex,Eruption Observed,2015,-8.508,124.13,862,Andesite / Basaltic Andesite,Subduction Zone / Crust Thickness Unknown
266100,Lokon-Empung,Indonesia,Indonesia,Stratovolcano,Eruption Observed,2015,1.358,124.792,1580,Basalt / Picro-Basalt,Subduction Zone / Continental Crust (>25 km)
282050,Kuchinoerabujima,Japan,"Japan, Taiwan, Marianas",Stratovolcano,Eruption Observed,2015,30.443,130.217,657,Andesite / Basaltic Andesite,Subduction Zone / Oceanic Crust (< 15 km)
283020,Hakoneyama,Japan,"Japan, Taiwan, Marianas",Complex,Eruption Dated,2015,35.233,139.021,1438,Andesite / Basaltic Andesite,Subduction Zone / Continental Crust (>25 km)
283110,Asamayama,Japan,"Japan, Taiwan, Marianas",Complex,Eruption Observed,2015,36.406,138.523,2568,Andesite / Basaltic Andesite,Subduction Zone / Continental Crust (>25 km)
284096,Nishinoshima,Japan,"Japan, Taiwan, Marianas",Caldera,Eruption Observed,2015,27.247,140.874,25,Andesite / Basaltic Andesite,Subduction Zone / Crust Thickness Unknown
284305,Mariana Back-Arc Segment at 15.5°N,United States,"Japan, Taiwan, Marianas",Submarine,Eruption Observed,2015,15.406,144.506,-4100,No Data,Subduction Zone / Oceanic Crust (< 15 km)
311360,Shishaldin,United States,Alaska,Stratovolcano,Eruption Observed,2015,54.756,-163.97,2857,Basalt / Picro-Basalt,Subduction Zone / Continental Crust (>25 km)
331021,Axial Seamount,Undersea Features,Hawaii and Pacific Ocean,Submarine,Eruption Observed,2015,45.95,-130,-1410,Basalt / Picro-Basalt,Rift Zone / Oceanic Crust (< 15 km)
353020,Wolf,Ecuador,South America,Shield,Eruption Observed,2015,0.02,-91.35,1710,Basalt / Picro-Basalt,Rift Zone / Oceanic Crust (< 15 km)
358020,Calbuco,Chile,South America,Stratovolcano,Eruption Observed,2015,-41.33,-72.618,1974,Andesite / Basaltic Andesite,Subduction Zone / Continental Crust (>25 km)
360160,Kick 'em Jenny,Grenada,West Indies,Submarine,Eruption Observed,2015,12.3,-61.64,-185,Basalt / Picro-Basalt,Subduction Zone / Oceanic Crust (< 15 km)
373030,Bardarbunga,Iceland,Iceland and Arctic Ocean,Stratovolcano,Eruption Observed,2015,64.633,-17.516,2000,Basalt / Picro-Basalt,Rift Zone / Oceanic Crust (< 15 km)
384010,Fogo,Cape Verde,Atlantic Ocean,Stratovolcano,Eruption Observed,2015,14.95,-24.35,2829,Foidite,Intraplate / Intermediate Crust (15-25 km)
390090,Saunders,United Kingdom,Antarctica,Stratovolcano,Eruption Observed,2015,-57.8,-26.483,843,Basalt / Picro-Basalt,Subduction Zone / Oceanic Crust (< 15 km)
211040,Stromboli,Italy,Mediterranean and Western Asia,Stratovolcano,Eruption Observed,2016,38.789,15.213,924,Trachyandesite / Basaltic Trachyandesite,Subduction Zone / Continental Crust (>25 km)
211060,Etna,Italy,Mediterranean and Western Asia,Stratovolcano,Eruption Observed,2016,37.734,15.004,3330,Trachybasalt / Tephrite Basanite,Subduction Zone / Continental Crust (>25 km)
221080,Erta Ale,Ethiopia,Africa and Red Sea,Shield,Eruption Observed,2016,13.6,40.67,613,Basalt / Picro-Basalt,Rift Zone / Intermediate Crust (15-25 km)
223030,Nyiragongo,DR Congo,Africa and Red Sea,Stratovolcano,Eruption Observed,2016,-1.52,29.25,3470,Foidite,Rift Zone / Continental Crust (>25 km)
233020,"Fournaise, Piton de la",France,Middle East and Indian Ocean,Shield,Eruption Observed,2016,-21.244,55.708,2632,Basalt / Picro-Basalt,Intraplate / Oceanic Crust (< 15 km)
234010,Heard,Australia,Middle East and Indian Ocean,Stratovolcano,Eruption Observed,2016,-53.106,73.513,2745,Trachybasalt / Tephrite Basanite,Intraplate / Oceanic Crust (< 15 km)
241040,White Island,New Zealand,New Zealand to Fiji,Stratovolcano,Eruption Observed,2016,-37.52,177.18,321,Andesite / Basaltic Andesite,Subduction Zone / Continental Crust (>25 km)
251020,Manam,Papua New Guinea,Melanesia and Australia,Stratovolcano,Eruption Observed,2016,-4.08,145.037,1807,Basalt / Picro-Basalt,Subduction Zone / Continental Crust (>25 km)
252010,Langila,Papua New Guinea,Melanesia and Australia,Complex,Eruption Observed,2016,-5.525,148.42,1330,Basalt / Picro-Basalt,Subduction Zone / Continental Crust (>25 km)
252120,Ulawun,Papua New Guinea,Melanesia and Australia,Stratovolcano,Eruption Observed,2016,-5.05,151.33,2334,Basalt / Picro-Basalt,Subduction Zone / Continental Crust (>25 km)
255020,Bagana,Papua New Guinea,Melanesia and Australia,Lava cone,Eruption Observed,2016,-6.137,155.196,1855,Andesite / Basaltic Andesite,Subduction Zone / Crust Thickness Unknown
257040,Ambrym,Vanuatu,Melanesia and Australia,Pyroclastic shield,Eruption Observed,2016,-16.25,168.12,1334,Basalt / Picro-Basalt,Subduction Zone / Intermediate Crust (15-25 km)
257100,Yasur,Vanuatu,Melanesia and Australia,Stratovolcano,Eruption Observed,2016,-19.53,169.442,361,Andesite / Basaltic Andesite,Subduction Zone / Intermediate Crust (15-25 km)
260010,Barren Island,India,Indonesia,Stratovolcano,Eruption Observed,2016,12.278,93.858,354,Basalt / Picro-Basalt,Subduction Zone / Continental Crust (>25 km)
261080,Sinabung,Indonesia,Indonesia,Stratovolcano,Eruption Observed,2016,3.17,98.392,2460,Andesite / Basaltic Andesite,Subduction Zone / Continental Crust (>25 km)
261170,Kerinci,Indonesia,Indonesia,Stratovolcano,Eruption Observed,2016,-1.697,101.264,3800,Andesite / Basaltic Andesite,Subduction Zone / Continental Crust (>25 km)
263300,Semeru,Indonesia,Indonesia,Stratovolcano,Eruption Observed,2016,-8.108,112.92,3676,Andesite / Basaltic Andesite,Subduction Zone / Continental Crust (>25 km)
263310,Tengger Caldera,Indonesia,Indonesia,Stratovolcano,Eruption Observed,2016,-7.942,112.95,2329,Trachyandesite / Basaltic Trachyandesite,Subduction Zone / Continental Crust (>25 km)
264030,Rinjani,Indonesia,Indonesia,Stratovolcano,Eruption Observed,2016,-8.42,116.47,3726,Andesite / Basaltic Andesite,Subduction Zone / Continental Crust (>25 km)
266030,Soputan,Indonesia,Indonesia,Stratovolcano,Eruption Observed,2016,1.112,124.737,1785,Andesite / Basaltic Andesite,Subduction Zone / Continental Crust (>25 km)
267020,Karangetang,Indonesia,Indonesia,Stratovolcano,Eruption Observed,2016,2.78,125.4,1784,Andesite / Basaltic Andesite,Subduction Zone / Oceanic Crust (< 15 km)
268010,Dukono,Indonesia,Indonesia,Complex,Eruption Observed,2016,1.693,127.894,1229,Andesite / Basaltic Andesite,Subduction Zone / Oceanic Crust (< 15 km)
268030,Ibu,Indonesia,Indonesia,Stratovolcano,Eruption Observed,2016,1.488,127.63,1325,Andesite / Basaltic Andesite,Subduction Zone / Oceanic Crust (< 15 km)
268060,Gamalama,Indonesia,Indonesia,Stratovolcano,Eruption Observed,2016,0.8,127.33,1715,Andesite / Basaltic Andesite,Subduction Zone / Oceanic Crust (< 15 km)
272020,Kanlaon,Philippines,Philippines and SE Asia,Stratovolcano,Eruption Observed,2016,10.412,123.132,2435,Andesite / Basaltic Andesite,Subduction Zone / Continental Crust (>25 km)
273010,Bulusan,Philippines,Philippines and SE Asia,Stratovolcano,Eruption Observed,2016,12.77,124.05,1565,Andesite / Basaltic Andesite,Subduction Zone / Continental Crust (>25 km)
282030,Suwanosejima,Japan,"Japan, Taiwan, Marianas",Stratovolcano,Eruption Observed,2016,29.638,129.714,796,Andesite / Basaltic Andesite,Subduction Zone / Oceanic Crust (< 15 km)
282080,Aira,Japan,"Japan, Taiwan, Marianas",Caldera,Eruption Observed,2016,31.593,130.657,1117,Andesite / Basaltic Andesite,Subduction Zone / Continental Crust (>25 km)
282110,Asosan,Japan,"Japan, Taiwan, Marianas",Caldera,Eruption Observed,2016,32.884,131.104,1592,Andesite / Basaltic Andesite,Subduction Zone / Continental Crust (>25 km)
290150,Chirpoi,Russia,Kuril Islands,Caldera,Eruption Observed,2016,46.525,150.875,742,Andesite / Basaltic Andesite,Subduction Zone / Oceanic Crust (< 15 km)
290260,Chirinkotan,Russia,Kuril Islands,Stratovolcano,Eruption Observed,2016,48.98,153.48,724,Andesite / Basaltic Andesite,Subduction Zone / Intermediate Crust (15-25 km)
290360,Chikurachki,Russia,Kuril Islands,Stratovolcano,Eruption Observed,2016,50.324,155.461,1781,Basalt / Picro-Basalt,Subduction Zone / Continental Crust (>25 km)
290380,Ebeko,Russia,Kuril Islands,Stratovolcano,Eruption Observed,2016,50.686,156.014,1103,Andesite / Basaltic Andesite,Subduction Zone / Continental Crust (>25 km)
290390,Alaid,Russia,Kuril Islands,Stratovolcano,Eruption Observed,2016,50.861,155.565,2285,Basalt / Picro-Basalt,Subduction Zone / Continental Crust (>25 km)
300120,Zhupanovsky,Russia,Kamchatka and Mainland Asia,Compound,Eruption Observed,2016,53.589,159.15,2899,Andesite / Basaltic Andesite,Subduction Zone / Continental Crust (>25 km)
300130,Karymsky,Russia,Kamchatka and Mainland Asia,Stratovolcano,Eruption Observed,2016,54.049,159.443,1513,Andesite / Basaltic Andesite,Subduction Zone / Continental Crust (>25 km)
300250,Bezymianny,Russia,Kamchatka and Mainland Asia,Stratovolcano,Eruption Observed,2016,55.972,160.595,2882,Andesite / Basaltic Andesite,Subduction Zone / Continental Crust (>25 km)
300260,Klyuchevskoy,Russia,Kamchatka and Mainland Asia,Stratovolcano,Eruption Observed,2016,56.056,160.642,4754,Basalt / Picro-Basalt,Subduction Zone / Continental Crust (>25 km)
300270,Sheveluch,Russia,Kamchatka and Mainland Asia,Stratovolcano,Eruption Observed,2016,56.653,161.36,3283,Andesite / Basaltic Andesite,Subduction Zone / Continental Crust (>25 km)
311240,Cleveland,United States,Alaska,Stratovolcano,Eruption Observed,2016,52.825,-169.944,1730,Andesite / Basaltic Andesite,Subduction Zone / Intermediate Crust (15-25 km)
312030,Pavlof,United States,Alaska,Stratovolcano,Eruption Observed,2016,55.417,-161.894,2493,Andesite / Basaltic Andesite,Subduction Zone / Continental Crust (>25 km)
332010,Kilauea,United States,Hawaii and Pacific Ocean,Shield,Eruption Observed,2016,19.421,-155.287,1222,Basalt / Picro-Basalt,Intraplate / Oceanic Crust (< 15 km)
341040,Colima,Mexico,México and Central America,Stratovolcano,Eruption Observed,2016,19.514,-103.62,3850,Andesite / Basaltic Andesite,Subduction Zone / Continental Crust (>25 km)
341090,Popocatepetl,Mexico,México and Central America,Stratovolcano,Eruption Observed,2016,19.023,-98.622,5426,Andesite / Basaltic Andesite,Subduction Zone / Continental Crust (>25 km)
342030,Santa Maria,Guatemala,México and Central America,Stratovolcano,Eruption Observed,2016,14.756,-91.552,3772,Dacite,Subduction Zone / Continental Crust (>25 km)
342090,Fuego,Guatemala,México and Central America,Stratovolcano,Eruption Observed,2016,14.473,-90.88,3763,Basalt / Picro-Basalt,Subduction Zone / Continental Crust (>25 km)
342110,Pacaya,Guatemala,México and Central America,Complex,Eruption Observed,2016,14.381,-90.601,2552,Basalt / Picro-Basalt,Subduction Zone / Continental Crust (>25 km)
343100,San Miguel,El Salvador,México and Central America,Stratovolcano,Eruption Observed,2016,13.434,-88.269,2130,Andesite / Basaltic Andesite,Subduction Zone / Continental Crust (>25 km)
344020,San Cristobal,Nicaragua,México and Central America,Stratovolcano,Eruption Observed,2016,12.702,-87.004,1745,Basalt / Picro-Basalt,Subduction Zone / Continental Crust (>25 km)
344040,Telica,Nicaragua,México and Central America,Stratovolcano,Eruption Observed,2016,12.602,-86.845,1061,Basalt / Picro-Basalt,Subduction Zone / Continental Crust (>25 km)
344090,Momotombo,Nicaragua,México and Central America,Stratovolcano,Eruption Observed,2016,12.422,-86.54,1297,Basalt / Picro-Basalt,Subduction Zone / Continental Crust (>25 km)
344100,Masaya,Nicaragua,México and Central America,Caldera,Eruption Observed,2016,11.984,-86.161,635,Basalt / Picro-Basalt,Subduction Zone / Continental Crust (>25 km)
345040,Poas,Costa Rica,México and Central America,Stratovolcano,Eruption Observed,2016,10.2,-84.233,2708,Andesite / Basaltic Andesite,Subduction Zone / Continental Crust (>25 km)
345070,Turrialba,Costa Rica,México and Central America,Stratovolcano,Eruption Observed,2016,10.025,-83.767,3340,Andesite / Basaltic Andesite,Subduction Zone / Continental Crust (>25 km)
351020,"Ruiz, Nevado del",Colombia,South America,Stratovolcano,Eruption Observed,2016,4.892,-75.324,5279,Andesite / Basaltic Andesite,Subduction Zone / Continental Crust (>25 km)
352010,Reventador,Ecuador,South America,Stratovolcano,Eruption Observed,2016,-0.077,-77.656,3562,Andesite / Basaltic Andesite,Subduction Zone / Continental Crust (>25 km)
352050,Cotopaxi,Ecuador,South America,Stratovolcano,Eruption Observed,2016,-0.677,-78.436,5911,Andesite / Basaltic Andesite,Subduction Zone / Continental Crust (>25 km)
352080,Tungurahua,Ecuador,South America,Stratovolcano,Eruption Observed,2016,-1.467,-78.442,5023,Andesite / Basaltic Andesite,Subduction Zone / Continental Crust (>25 km)
352090,Sangay,Ecuador,South America,Stratovolcano,Eruption Observed,2016,-2.005,-78.341,5286,Andesite / Basaltic Andesite,Subduction Zone / Continental Crust (>25 km)
354006,Sabancaya,Peru,South America,Stratovolcano,Eruption Observed,2016,-15.78,-71.85,5967,Andesite / Basaltic Andesite,Subduction Zone / Continental Crust (>25 km)
354020,Ubinas,Peru,South America,Stratovolcano,Eruption Observed,2016,-16.355,-70.903,5672,Andesite / Basaltic Andesite,Subduction Zone / Continental Crust (>25 km)
355100,Lascar,Chile,South America,Stratovolcano,Eruption Observed,2016,-23.37,-67.73,5592,Andesite / Basaltic Andesite,Subduction Zone / Continental Crust (>25 km)
357070,"Chillan, Nevados de",Chile,South America,Stratovolcano,Eruption Observed,2016,-36.863,-71.377,3212,Andesite / Basaltic Andesite,Subduction Zone / Continental Crust (>25 km)
357090,Copahue,Chile-Argentina,South America,Stratovolcano,Eruption Observed,2016,-37.856,-71.183,2953,Trachybasalt / Tephrite Basanite,Subduction Zone / Continental Crust (>25 km)
357120,Villarrica,Chile,South America,Stratovolcano,Eruption Observed,2016,-39.42,-71.93,2847,Basalt / Picro-Basalt,Subduction Zone / Continental Crust (>25 km)
390020,Erebus,Antarctica,Antarctica,Stratovolcano,Eruption Observed,2016,-77.53,167.17,3794,Phonolite,Intraplate / Continental Crust (>25 km)
390080,Bristol Island,United Kingdom,Antarctica,Stratovolcano,Eruption Observed,2016,-59.017,-26.533,1100,Basalt / Picro-Basalt,Subduction Zone / Oceanic Crust (< 15 km)
390130,Zavodovski,United Kingdom,Antarctica,Stratovolcano,Eruption Observed,2016,-56.3,-27.57,551,Basalt / Picro-Basalt,Subduction Zone / Oceanic Crust (< 15 km)
323200,Salton Buttes,United States,Canada and Western USA,Lava dome,Eruption Dated,210,33.197,-115.616,-40,Rhyolite,Rift Zone / Continental Crust (>25 km)
360020,"Quill, The",Netherlands,West Indies,Stratovolcano,Eruption Dated,250,17.478,-62.96,601,Andesite / Basaltic Andesite,Subduction Zone / Oceanic Crust (< 15 km)
241070,Taupo,New Zealand,New Zealand to Fiji,Caldera,Eruption Dated,260,-38.82,176,760,Rhyolite,Subduction Zone / Continental Crust (>25 km)
352011,Pululagua,Ecuador,South America,Caldera,Eruption Dated,290,0.038,-78.463,3356,Dacite,Subduction Zone / Continental Crust (>25 km)
355012,Parinacota,Chile-Bolivia,South America,Stratovolcano,Eruption Dated,290,-18.166,-69.142,6336,Andesite / Basaltic Andesite,Subduction Zone / Continental Crust (>25 km)
300082,Tolmachev Dol,Russia,Kamchatka and Mainland Asia,Pyroclastic cone,Eruption Dated,300,52.63,157.58,1021,Basalt / Picro-Basalt,Subduction Zone / Continental Crust (>25 km)
314060,Imuruk Lake,United States,Alaska,Shield,Eruption Dated,300,65.517,-163.45,610,Basalt / Picro-Basalt,Intraplate / Continental Crust (>25 km)
358023,Hornopiren,Chile,South America,Stratovolcano,Eruption Dated,340,-41.874,-72.431,1572,Andesite / Basaltic Andesite,Subduction Zone / Continental Crust (>25 km)
300022,Diky Greben,Russia,Kamchatka and Mainland Asia,Lava dome,Eruption Dated,350,51.452,156.978,1040,Dacite,Subduction Zone / Continental Crust (>25 km)
305050,Longgang Group,China,Kamchatka and Mainland Asia,Pyroclastic cone,Eruption Dated,350,42.33,126.5,1000,Basalt / Picro-Basalt,Intraplate / Continental Crust (>25 km)
300121,Veer,Russia,Kamchatka and Mainland Asia,Pyroclastic cone,Eruption Dated,390,53.75,158.45,520,Basalt / Picro-Basalt,Subduction Zone / Continental Crust (>25 km)
383040,Gran Canaria,Spain,Atlantic Ocean,Fissure vent,Eruption Dated,40,28,-15.58,1950,Trachybasalt / Tephrite Basanite,Intraplate / Intermediate Crust (15-25 km)
241010,Kaikohe-Bay of Islands,New Zealand,New Zealand to Fiji,Volcanic field,Eruption Dated,400,-35.3,173.9,388,Trachybasalt / Tephrite Basanite,Subduction Zone / Continental Crust (>25 km)
341080,Chichinautzin,Mexico,México and Central America,Volcanic field,Eruption Dated,400,19.08,-99.13,3930,Andesite / Basaltic Andesite,Subduction Zone / Continental Crust (>25 km)
322070,Three Sisters,United States,Canada and Western USA,Complex,Eruption Dated,440,44.133,-121.767,3159,Andesite / Basaltic Andesite,Subduction Zone / Continental Crust (>25 km)
322060,Belknap,United States,Canada and Western USA,Shield,Eruption Dated,480,44.285,-121.841,2095,Andesite / Basaltic Andesite,Subduction Zone / Continental Crust (>25 km)
214010,Elbrus,Russia,Mediterranean and Western Asia,Stratovolcano,Eruption Dated,50,43.351,42.442,5642,Dacite,Intraplate / Continental Crust (>25 km)
231090,"Arhab, Harra of",Yemen,Middle East and Indian Ocean,Volcanic field,Eruption Observed,500,15.63,44.08,3100,Trachybasalt / Tephrite Basanite,Intraplate / Continental Crust (>25 km)
283122,Harunasan,Japan,"Japan, Taiwan, Marianas",Stratovolcano,Eruption Dated,550,36.477,138.851,1449,Andesite / Basaltic Andesite,Subduction Zone / Continental Crust (>25 km)
352071,Chimborazo,Ecuador,South America,Stratovolcano,Eruption Dated,550,-1.464,-78.815,6310,Andesite / Basaltic Andesite,Subduction Zone / Continental Crust (>25 km)
357122,Lanin,Chile-Argentina,South America,Stratovolcano,Eruption Dated,560,-39.637,-71.502,3776,Trachyandesite / Basaltic Trachyandesite,Subduction Zone / Continental Crust (>25 km)
231020,"Uwayrid, Harrat",Saudi Arabia,Middle East and Indian Ocean,Volcanic field,Eruption Dated,640,27.08,37.25,1920,Basalt / Picro-Basalt,Intraplate / Continental Crust (>25 km)
281032,Tatun Group,Taiwan,"Japan, Taiwan, Marianas",Lava dome,Eruption Dated,648,25.17,121.52,1120,Andesite / Basaltic Andesite,Subduction Zone / Continental Crust (>25 km)
231060,"Khaybar, Harrat",Saudi Arabia,Middle East and Indian Ocean,Volcanic field,Eruption Observed,650,25,39.92,2093,Basalt / Picro-Basalt,Intraplate / Continental Crust (>25 km)
283002,Sanbesan,Japan,"Japan, Taiwan, Marianas",Stratovolcano,Eruption Dated,650,35.139,132.621,1126,Dacite,Subduction Zone / Continental Crust (>25 km)
352003,Cuicocha,Ecuador,South America,Caldera,Eruption Dated,650,0.308,-78.364,3246,Dacite,Subduction Zone / Continental Crust (>25 km)
322030,Blue Lake Crater,United States,Canada and Western USA,Maar,Eruption Dated,680,44.411,-121.774,1230,Basalt / Picro-Basalt,Subduction Zone / Continental Crust (>25 km)
322110,Newberry,United States,Canada and Western USA,Shield,Eruption Dated,690,43.722,-121.229,2434,Andesite / Basaltic Andesite,Subduction Zone / Continental Crust (>25 km)
322040,Sand Mountain Field,United States,Canada and Western USA,Pyroclastic cone,Eruption Dated,70,44.38,-121.93,1664,Basalt / Picro-Basalt,Subduction Zone / Continental Crust (>25 km)
355130,"Ojos del Salado, Nevados",Chile-Argentina,South America,Stratovolcano,Eruption Dated,750,-27.109,-68.541,6879,Dacite,Subduction Zone / Continental Crust (>25 km)
283200,Naruko,Japan,"Japan, Taiwan, Marianas",Caldera,Eruption Observed,837,38.729,140.734,470,Rhyolite,Subduction Zone / Continental Crust (>25 km)
284030,Kozushima,Japan,"Japan, Taiwan, Marianas",Lava dome,Eruption Observed,838,34.219,139.153,572,Rhyolite,Subduction Zone / Oceanic Crust (< 15 km)
315030,Churchill,United States,Alaska,Stratovolcano,Eruption Dated,847,61.38,-141.75,5005,Dacite,Intraplate / Continental Crust (>25 km)
225060,Bayuda Volcanic Field,Sudan,Africa and Red Sea,Pyroclastic cone,Eruption Dated,850,18.33,32.75,670,Trachybasalt / Tephrite Basanite,Intraplate / Continental Crust (>25 km)
300551,Kinenin,Russia,Kamchatka and Mainland Asia,Maar,Eruption Dated,850,57.35,160.97,583,Basalt / Picro-Basalt,Subduction Zone / Continental Crust (>25 km)
282130,Yufu-Tsurumi,Japan,"Japan, Taiwan, Marianas",Lava dome,Eruption Observed,867,33.282,131.39,1584,Andesite / Basaltic Andesite,Subduction Zone / Continental Crust (>25 km)
284180,Alamagan,United States,"Japan, Taiwan, Marianas",Stratovolcano,Eruption Dated,870,17.6,145.83,744,Andesite / Basaltic Andesite,Subduction Zone / Crust Thickness Unknown
282070,Ata,Japan,"Japan, Taiwan, Marianas",Caldera,Eruption Observed,885,31.22,130.57,924,Andesite / Basaltic Andesite,Subduction Zone / Continental Crust (>25 km)
284020,Niijima,Japan,"Japan, Taiwan, Marianas",Lava dome,Eruption Observed,886,34.397,139.27,432,Rhyolite,Subduction Zone / Oceanic Crust (< 15 km)
283271,Towada,Japan,"Japan, Taiwan, Marianas",Caldera,Eruption Observed,915,40.51,140.88,1011,Andesite / Basaltic Andesite,Subduction Zone / Continental Crust (>25 km)
360100,"Trois Pitons, Morne",Dominica,West Indies,Complex,Eruption Dated,920,15.37,-61.33,1387,Andesite / Basaltic Andesite,Subduction Zone / Oceanic Crust (< 15 km)
252100,Hargy,Papua New Guinea,Melanesia and Australia,Stratovolcano,Eruption Dated,950,-5.33,151.1,1148,Dacite,Subduction Zone / Continental Crust (>25 km)
300220,Komarov,Russia,Kamchatka and Mainland Asia,Stratovolcano,Eruption Dated,950,55.033,160.725,2065,Basalt / Picro-Basalt,Subduction Zone / Continental Crust (>25 km)
320060,Edziza,Canada,Canada and Western USA,Stratovolcano,Eruption Dated,950,57.72,-130.63,2786,Trachyte / Trachydacite,Intraplate / Continental Crust (>25 km)
321040,Adams,United States,Canada and Western USA,Stratovolcano,Eruption Dated,950,46.206,-121.49,3742,Andesite / Basaltic Andesite,Subduction Zone / Continental Crust (>25 km)
322020,Jefferson,United States,Canada and Western USA,Stratovolcano,Eruption Dated,950,44.674,-121.8,3199,Andesite / Basaltic Andesite,Subduction Zone / Continental Crust (>25 km)
371080,Langjokull,Iceland,Iceland and Arctic Ocean,Subglacial,Eruption Dated,950,64.85,-19.7,1100,Basalt / Picro-Basalt,Rift Zone / Oceanic Crust (< 15 km)
370030,Ljosufjoll,Iceland,Iceland and Arctic Ocean,Fissure vent,Eruption Dated,960,64.9,-22.483,1063,Basalt / Picro-Basalt,Rift Zone / Oceanic Crust (< 15 km)
